{"type":"FeatureCollection","features":[{"type":"Feature","geometry":{"type":"Point","coordinates":[-99.21346227133135,29.19134623409735]},"properties":{"SymbolText":"Morin Blind","Type":"Deer blind","Source":"2017 ranch infrastructure","name":"Morin Blind","name_src":"field","layer":"Blinds"}},{"type":"Feature","geometry":{"type":"Point","coordinates":[-99.21949840965783,29.17093848236188]},"properties":{"SymbolText":"Creek Blind","Type":"Deer blind","Source":"2017 ranch infrastructure","name":"Creek Blind","name_src":"field","layer":"Blinds"}},{"type":"Feature","geometry":{"type":"Point","coordinates":[-99.21876390203137,29.17002998016275]},"properties":{"SymbolText":"Field Blind","Type":"Deer blind","Source":"2017 ranch infrastructure","name":"Field Blind","name_src":"field","layer":"Blinds"}},{"type":"Feature","geometry":{"type":"Point","coordinates":[-99.22404831049661,29.16520376401239]},"properties":{"SymbolText":"West Blind","Type":"Deer blind","Source":"2017 ranch infrastructure","name":"West Blind","name_src":"field","layer":"Blinds"}},{"type":"Feature","geometry":{"type":"Point","coordinates":[-99.21819584375443,29.16471845964199]},"properties":{"SymbolText":"Encino Blind","Type":"Deer blind","Source":"2017 ranch infrastructure","name":"Encino Blind","name_src":"field","layer":"Blinds"}},{"type":"Feature","geometry":{"type":"Point","coordinates":[-99.21175643722066,29.16354886634225]},"properties":{"SymbolText":"Hilltop Blind","Type":"Deer blind","Source":"2017 ranch infrastructure","name":"Hilltop Blind","name_src":"field","layer":"Blinds"}},{"type":"Feature","geometry":{"type":"Point","coordinates":[-99.21351378731025,29.1882497705066]},"properties":{"SymbolText":"House Blind","Type":"Deer blind","Source":"2017 ranch infrastructure","name":"House Blind","name_src":"field","layer":"Blinds"}},{"type":"Feature","geometry":{"type":"Point","coordinates":[-99.2224665283278,29.17524641267233]},"properties":{"Type":"Duck blind","Source":"2017 ranch infrastructure","name":"Duck Blind 1","name_src":"type","layer":"Blinds"}},{"type":"Feature","geometry":{"type":"Point","coordinates":[-99.22282463747558,29.17348435176439]},"properties":{"Type":"Duck blind","Source":"2017 ranch infrastructure","name":"Duck Blind 2","name_src":"type","layer":"Blinds"}},{"type":"Feature","geometry":{"type":"Point","coordinates":[-99.22246467786321,29.17945274854651]},"properties":{"Type":"Duck blind","Source":"2017 ranch infrastructure","name":"Duck Blind 3","name_src":"type","layer":"Blinds"}},{"type":"Feature","geometry":{"type":"Point","coordinates":[-99.22272191588581,29.18174318123819]},"properties":{"Type":"Duck blind","Source":"2017 ranch infrastructure","name":"Duck Blind 4","name_src":"type","layer":"Blinds"}},{"type":"Feature","geometry":{"type":"Point","coordinates":[-99.21811668723481,29.16683117964707]},"properties":{"Type":"Duck blind","Source":"2017 ranch infrastructure","name":"Duck Blind 5","name_src":"type","layer":"Blinds"}},{"type":"Feature","geometry":{"type":"Point","coordinates":[-99.21570612068344,29.16618342494149]},"properties":{"Type":"Duck blind","Source":"2017 ranch infrastructure","name":"Duck Blind 6","name_src":"type","layer":"Blinds"}},{"type":"Feature","geometry":{"type":"Point","coordinates":[-99.21564201380922,29.16532677539365]},"properties":{"Type":"Duck blind","Source":"2017 ranch infrastructure","name":"Duck Blind 7","name_src":"type","layer":"Blinds"}}]}