{"type":"FeatureCollection","features":[{"type":"Feature","geometry":{"type":"LineString","coordinates":[[-99.21449677766007,29.16368426313438],[-99.2144999055939,29.16371688472055],[-99.2161149929314,29.16364649327689],[-99.21647075093674,29.16372795782721],[-99.21647092700655,29.16381892340014]]},"properties":{"esrignss_a":"1.88","esrignss_1":"2.35","esrignss_w":"1.88","esrignss_2":"2.35","esrignss_m":"4","Source":"Feb 2023 survey","name":"1.88","name_src":"field","layer":"Buried Electric","Length_ft":"677"}},{"type":"Feature","geometry":{"type":"LineString","coordinates":[[-99.21984222162284,29.1739390776216],[-99.22024321698926,29.17355960663032]]},"properties":{"esrignss_a":"2.35","esrignss_1":"2.82","esrignss_w":"2.35","esrignss_2":"2.82","esrignss_m":"1","Source":"Feb 2023 survey","name":"2.35 1","name_src":"field","layer":"Buried Electric","Length_ft":"188"}},{"type":"Feature","geometry":{"type":"LineString","coordinates":[[-99.22190332339724,29.17791775076086],[-99.22192248536058,29.17799801494473],[-99.22193651794362,29.17804422437199],[-99.22325972647567,29.17785342642533],[-99.2232616928878,29.17788139008844]]},"properties":{"esrignss_a":"2.35","esrignss_1":"2.82","esrignss_w":"2.35","esrignss_2":"2.82","esrignss_m":"3","Source":"Feb 2023 survey","name":"2.35 2","name_src":"field","layer":"Buried Electric","Length_ft":"485"}},{"type":"Feature","geometry":{"type":"LineString","coordinates":[[-99.21629970362183,29.18673409971838],[-99.21545923624873,29.18691303648204]]},"properties":{"esrignss_a":"1.974","esrignss_1":"2.585","esrignss_w":"2.068","esrignss_2":"2.82","Source":"Feb 2023 survey","name":"1.974 1","name_src":"field","layer":"Buried Electric","Length_ft":"276"}},{"type":"Feature","geometry":{"type":"LineString","coordinates":[[-99.21739883998265,29.18745628990917],[-99.21723514627662,29.18725389305616],[-99.2171512202729,29.18714811010268],[-99.21703180632386,29.18704290660693],[-99.2168826635288,29.18699531309479],[-99.21672486366937,29.18696292634255],[-99.21655778690798,29.18684804645969],[-99.21648722693737,29.1867813702365],[-99.21638056637045,29.18677535966512],[-99.21621591685694,29.18678269014665],[-99.21613168003611,29.18672932357067],[-99.21603699041866,29.18667815995644],[-99.2159581830154,29.18664925365598]]},"properties":{"esrignss_a":"1.908923","esrignss_1":"2.812769","esrignss_w":"2.068","esrignss_2":"2.82","Source":"Feb 2023 survey","name":"1.908923","name_src":"field","layer":"Buried Electric","Length_ft":"577"}},{"type":"Feature","geometry":{"type":"LineString","coordinates":[[-99.21573653629547,29.1879028665748],[-99.21572069989531,29.18798299354548],[-99.21546298671504,29.18800318644194]]},"properties":{"esrignss_a":"2.193333","esrignss_1":"2.851333","esrignss_w":"2.35","esrignss_2":"2.914","Source":"Feb 2023 survey","name":"2.193333","name_src":"field","layer":"Buried Electric","Length_ft":"112"}},{"type":"Feature","geometry":{"type":"LineString","coordinates":[[-99.2138714963234,29.18970372023131],[-99.21370926327805,29.18971123009404]]},"properties":{"esrignss_a":"2.397","esrignss_1":"2.867","esrignss_w":"2.444","esrignss_2":"2.914","Source":"Feb 2023 survey","name":"2.397","name_src":"field","layer":"Buried Electric","Length_ft":"52"}},{"type":"Feature","geometry":{"type":"LineString","coordinates":[[-99.21630709674717,29.18671594073595],[-99.21631296189184,29.18675111129878],[-99.21545923624873,29.18691303648204]]},"properties":{"esrignss_a":"1.974","esrignss_1":"2.585","esrignss_w":"2.068","esrignss_2":"2.82","Source":"2022 survey (post-review)","name":"1.974 2","name_src":"field","layer":"Buried Electric","Length_ft":"291"}},{"type":"Feature","geometry":{"type":"LineString","coordinates":[[-99.2161252981113,29.16365191231867],[-99.21612953484892,29.16376864940514]]},"properties":{"Source":"2022 survey (post-review)","name":"Untitled Path","name_src":"field","layer":"Buried Electric","Length_ft":"43"}}]}