{"type":"FeatureCollection","features":[{"type":"Feature","geometry":{"type":"Point","coordinates":[-99.21477374944867,29.19012694482037]},"properties":{"SymbolText":"Laydown","Source":"2017 ranch infrastructure","name":"Laydown 1","name_src":"field","layer":"Cattle Guards"}},{"type":"Feature","geometry":{"type":"Point","coordinates":[-99.21468278267207,29.18942432322232]},"properties":{"SymbolText":"Standup","Source":"2017 ranch infrastructure","name":"Standup 1","name_src":"field","layer":"Cattle Guards"}},{"type":"Feature","geometry":{"type":"Point","coordinates":[-99.21394458196355,29.185868835897]},"properties":{"SymbolText":"Standup","Source":"2017 ranch infrastructure","name":"Standup 2","name_src":"field","layer":"Cattle Guards"}},{"type":"Feature","geometry":{"type":"Point","coordinates":[-99.2177127176943,29.18645279536802]},"properties":{"SymbolText":"Standup","Source":"2017 ranch infrastructure","name":"Standup 3","name_src":"field","layer":"Cattle Guards"}},{"type":"Feature","geometry":{"type":"Point","coordinates":[-99.21880633082196,29.18642759699589]},"properties":{"SymbolText":"Laydown","Source":"2017 ranch infrastructure","name":"Laydown 2","name_src":"field","layer":"Cattle Guards"}},{"type":"Feature","geometry":{"type":"Point","coordinates":[-99.21809694958789,29.18334002772559]},"properties":{"SymbolText":"Laydown","Source":"2017 ranch infrastructure","name":"Laydown 3","name_src":"field","layer":"Cattle Guards"}},{"type":"Feature","geometry":{"type":"Point","coordinates":[-99.21752954058258,29.18022981896486]},"properties":{"SymbolText":"Laydown","Source":"2017 ranch infrastructure","name":"Laydown 4","name_src":"field","layer":"Cattle Guards"}},{"type":"Feature","geometry":{"type":"Point","coordinates":[-99.2213613388733,29.18125322071907]},"properties":{"SymbolText":"Standup","Source":"2017 ranch infrastructure","name":"Standup 4","name_src":"field","layer":"Cattle Guards"}},{"type":"Feature","geometry":{"type":"Point","coordinates":[-99.22386386236009,29.1813679355767]},"properties":{"SymbolText":"Laydown","Source":"2017 ranch infrastructure","name":"Laydown 5","name_src":"field","layer":"Cattle Guards"}},{"type":"Feature","geometry":{"type":"Point","coordinates":[-99.21673487329586,29.17202162728309]},"properties":{"SymbolText":"Laydown","Source":"2017 ranch infrastructure","name":"Laydown 6","name_src":"field","layer":"Cattle Guards"}},{"type":"Feature","geometry":{"type":"Point","coordinates":[-99.21975110553451,29.17103347420414]},"properties":{"SymbolText":"Laydown","Source":"2017 ranch infrastructure","name":"Laydown 7","name_src":"field","layer":"Cattle Guards"}},{"type":"Feature","geometry":{"type":"Point","coordinates":[-99.21412505100304,29.17185814854118]},"properties":{"SymbolText":"Laydown","Source":"2017 ranch infrastructure","name":"Laydown 8","name_src":"field","layer":"Cattle Guards"}},{"type":"Feature","geometry":{"type":"Point","coordinates":[-99.22379708391765,29.1710012595722]},"properties":{"SymbolText":"Laydown","Source":"2017 ranch infrastructure","name":"Laydown 9","name_src":"field","layer":"Cattle Guards"}},{"type":"Feature","geometry":{"type":"Point","coordinates":[-99.21980852997955,29.16503837935927]},"properties":{"SymbolText":"Standup","Source":"2017 ranch infrastructure","name":"Standup 5","name_src":"field","layer":"Cattle Guards"}},{"type":"Feature","geometry":{"type":"Point","coordinates":[-99.22000497968597,29.16297046646075]},"properties":{"SymbolText":"Standup","Source":"2017 ranch infrastructure","name":"Standup 6","name_src":"field","layer":"Cattle Guards"}},{"type":"Feature","geometry":{"type":"Point","coordinates":[-99.21446105429798,29.16374578934168]},"properties":{"SymbolText":"Standup","Source":"2017 ranch infrastructure","name":"Standup 7","name_src":"field","layer":"Cattle Guards"}}]}