{"type":"FeatureCollection","features":[{"type":"Feature","geometry":{"type":"Point","coordinates":[-99.21507888687321,29.19267132783793]},"properties":{"Source":"2017 ranch infrastructure","name":"Cattle Trough 1","name_src":"seq","layer":"Cattle Troughs"}},{"type":"Feature","geometry":{"type":"Point","coordinates":[-99.2143515932373,29.19272848919179]},"properties":{"Source":"2017 ranch infrastructure","name":"Cattle Trough 2","name_src":"seq","layer":"Cattle Troughs"}},{"type":"Feature","geometry":{"type":"Point","coordinates":[-99.2107704507934,29.19154064219549]},"properties":{"Source":"2017 ranch infrastructure","name":"Cattle Trough 3","name_src":"seq","layer":"Cattle Troughs"}},{"type":"Feature","geometry":{"type":"Point","coordinates":[-99.21800903287229,29.18651455842841]},"properties":{"Source":"2017 ranch infrastructure","name":"Cattle Trough 4","name_src":"seq","layer":"Cattle Troughs"}},{"type":"Feature","geometry":{"type":"Point","coordinates":[-99.21782197920065,29.18321657444616]},"properties":{"Source":"2017 ranch infrastructure","name":"Cattle Trough 5","name_src":"seq","layer":"Cattle Troughs"}},{"type":"Feature","geometry":{"type":"Point","coordinates":[-99.22030666089962,29.17071961198929]},"properties":{"Source":"2017 ranch infrastructure","name":"Cattle Trough 6","name_src":"seq","layer":"Cattle Troughs"}},{"type":"Feature","geometry":{"type":"Point","coordinates":[-99.21567363044329,29.16961193829547]},"properties":{"Source":"2017 ranch infrastructure","name":"Cattle Trough 7","name_src":"seq","layer":"Cattle Troughs"}},{"type":"Feature","geometry":{"type":"Point","coordinates":[-99.21488316675905,29.16296481062]},"properties":{"Source":"2017 ranch infrastructure","name":"Cattle Trough 8","name_src":"seq","layer":"Cattle Troughs"}}]}