{"type":"FeatureCollection","features":[{"type":"Feature","geometry":{"type":"Point","coordinates":[-99.21484464306732,29.1880091836091]},"properties":{"System":"Yancey","CreationDa":"7/26/2022","EditDate":"7/26/2022","Source":"Feb 2023 survey","name":"Cut-Off 1 (Yancey)","name_src":"seq","layer":"Cut-Offs / Valve Boxes","photos":["w-t-valve.jpg"]}},{"type":"Feature","geometry":{"type":"Point","coordinates":[-99.21482961335431,29.18673221670847]},"properties":{"System":"Ranch Water","CreationDa":"7/26/2022","EditDate":"7/26/2022","Source":"Feb 2023 survey","name":"Cut-Off 2 (Ranch Water)","name_src":"seq","layer":"Cut-Offs / Valve Boxes"}},{"type":"Feature","geometry":{"type":"Point","coordinates":[-99.21482394469278,29.18673125182078]},"properties":{"System":"Yancey","CreationDa":"7/26/2022","EditDate":"7/26/2022","Source":"Feb 2023 survey","name":"Cut-Off 3 (Yancey)","name_src":"seq","layer":"Cut-Offs / Valve Boxes"}},{"type":"Feature","geometry":{"type":"Point","coordinates":[-99.21581292799362,29.16955576494218]},"properties":{"System":"Yancey","CreationDa":"7/26/2022","EditDate":"7/26/2022","Source":"Feb 2023 survey","name":"Cut-Off 4 (Yancey)","name_src":"seq","layer":"Cut-Offs / Valve Boxes"}},{"type":"Feature","geometry":{"type":"Point","coordinates":[-99.21581475086602,29.16955308555855]},"properties":{"System":"Ranch Water","CreationDa":"7/26/2022","EditDate":"7/26/2022","Source":"Feb 2023 survey","name":"Cut-Off 5 (Ranch Water)","name_src":"seq","layer":"Cut-Offs / Valve Boxes"}},{"type":"Feature","geometry":{"type":"Point","coordinates":[-99.21581123300798,29.16954998028432]},"properties":{"System":"Irrigation","CreationDa":"7/26/2022","EditDate":"7/26/2022","Source":"Feb 2023 survey","name":"Cut-Off 6 (Irrigation)","name_src":"seq","layer":"Cut-Offs / Valve Boxes"}},{"type":"Feature","geometry":{"type":"Point","coordinates":[-99.21602470505884,29.16375860968001]},"properties":{"System":"Ranch Water","CreationDa":"7/26/2022","EditDate":"7/26/2022","Source":"Feb 2023 survey","name":"Cut-Off 7 (Ranch Water)","name_src":"seq","layer":"Cut-Offs / Valve Boxes"}},{"type":"Feature","geometry":{"type":"Point","coordinates":[-99.21601903639733,29.16375764457629]},"properties":{"System":"Yancey","CreationDa":"7/26/2022","EditDate":"7/26/2022","Source":"Feb 2023 survey","name":"Cut-Off 8 (Yancey)","name_src":"seq","layer":"Cut-Offs / Valve Boxes","photos":["yancey-valves.jpg"]}},{"type":"Feature","geometry":{"type":"Point","coordinates":[-99.21610932426988,29.16364552817213]},"properties":{"System":"Yancey","CreationDa":"7/26/2022","EditDate":"7/26/2022","Source":"Feb 2023 survey","name":"Cut-Off 9 (Yancey)","name_src":"seq","layer":"Cut-Offs / Valve Boxes"}},{"type":"Feature","geometry":{"type":"Point","coordinates":[-99.21651129999037,29.16378756008183]},"properties":{"System":"Yancey","CreationDa":"7/26/2022","EditDate":"7/26/2022","Source":"Feb 2023 survey","name":"Cut-Off 10 (Yancey)","name_src":"seq","layer":"Cut-Offs / Valve Boxes"}},{"type":"Feature","geometry":{"type":"Point","coordinates":[-99.220257536576,29.17354296513222]},"properties":{"System":"Yancey","CreationDa":"7/26/2022","EditDate":"7/26/2022","Source":"Feb 2023 survey","name":"Cut-Off 11 (Yancey)","name_src":"seq","layer":"Cut-Offs / Valve Boxes"}},{"type":"Feature","geometry":{"type":"Point","coordinates":[-99.22026424655007,29.17354713371457]},"properties":{"System":"Ranch Water","CreationDa":"7/26/2022","EditDate":"7/26/2022","Source":"Feb 2023 survey","name":"Cut-Off 12 (Ranch Water)","name_src":"seq","layer":"Cut-Offs / Valve Boxes"}},{"type":"Feature","geometry":{"type":"Point","coordinates":[-99.2203506069882,29.17337200368324]},"properties":{"System":"Ranch Water","CreationDa":"7/26/2022","EditDate":"7/26/2022","Source":"Feb 2023 survey","name":"Cut-Off 13 (Ranch Water)","name_src":"seq","layer":"Cut-Offs / Valve Boxes"}},{"type":"Feature","geometry":{"type":"Point","coordinates":[-99.22038536999307,29.17338553629433]},"properties":{"System":"Ranch Water","CreationDa":"7/26/2022","EditDate":"7/26/2022","Source":"Feb 2023 survey","name":"Cut-Off 14 (Ranch Water)","name_src":"seq","layer":"Cut-Offs / Valve Boxes"}},{"type":"Feature","geometry":{"type":"Point","coordinates":[-99.21825222692617,29.18830015362875]},"properties":{"System":"Irrigation","CreationDa":"7/26/2022","EditDate":"7/26/2022","Source":"Feb 2023 survey","name":"Cut-Off 15 (Irrigation)","name_src":"seq","layer":"Cut-Offs / Valve Boxes"}},{"type":"Feature","geometry":{"type":"Point","coordinates":[-99.21568595934833,29.18794380529258]},"properties":{"System":"Yancey","CreationDa":"7/26/2022","EditDate":"7/26/2022","Source":"Feb 2023 survey","name":"Cut-Off 16 (Yancey)","name_src":"seq","layer":"Cut-Offs / Valve Boxes"}},{"type":"Feature","geometry":{"type":"Point","coordinates":[-99.21568813955955,29.18795278967671]},"properties":{"System":"Yancey","CreationDa":"7/26/2022","EditDate":"7/26/2022","Source":"Feb 2023 survey","name":"Cut-Off 17 (Yancey)","name_src":"seq","layer":"Cut-Offs / Valve Boxes","photos":["yancey-valve-box.jpg"]}},{"type":"Feature","geometry":{"type":"Point","coordinates":[-99.21725502958714,29.18770759319127]},"properties":{"System":"Yancey","CreationDa":"7/26/2022","EditDate":"7/26/2022","Name":"Ice Machine Cutoff","Source":"Feb 2023 survey","name":"Ice Machine Cutoff","name_src":"field","layer":"Cut-Offs / Valve Boxes","photos":["ice-machine-cutoff.jpg"]}},{"type":"Feature","geometry":{"type":"Point","coordinates":[-99.21724488670927,29.18770771631907]},"properties":{"System":"Yancey","CreationDa":"7/26/2022","EditDate":"7/26/2022","Name":"Fish Table Cutoff","Source":"Feb 2023 survey","name":"Fish Table Cutoff","name_src":"field","layer":"Cut-Offs / Valve Boxes"}},{"type":"Feature","geometry":{"type":"Point","coordinates":[-99.20929153017042,29.18930623627987]},"properties":{"System":"Ranch Water","CreationDa":"7/26/2022","EditDate":"7/26/2022","Source":"Feb 2023 survey","name":"Cut-Off 18 (Ranch Water)","name_src":"seq","layer":"Cut-Offs / Valve Boxes"}},{"type":"Feature","geometry":{"type":"Point","coordinates":[-99.2148548164879,29.18971899640195]},"properties":{"System":"Yancey","CreationDa":"7/26/2022","EditDate":"7/26/2022","Source":"Feb 2023 survey","name":"Cut-Off 19 (Yancey)","name_src":"seq","layer":"Cut-Offs / Valve Boxes"}},{"type":"Feature","geometry":{"type":"Point","coordinates":[-99.21368016774429,29.18963991068766]},"properties":{"System":"Yancey","CreationDa":"7/26/2022","EditDate":"7/26/2022","Source":"Feb 2023 survey","name":"Cut-Off 20 (Yancey)","name_src":"seq","layer":"Cut-Offs / Valve Boxes","photos":["shooting-range-vales.jpg"]}},{"type":"Feature","geometry":{"type":"Point","coordinates":[-99.21373332016135,29.18968804331277]},"properties":{"System":"Yancey","CreationDa":"7/26/2022","EditDate":"7/26/2022","Source":"Feb 2023 survey","name":"Cut-Off 21 (Yancey)","name_src":"seq","layer":"Cut-Offs / Valve Boxes"}},{"type":"Feature","geometry":{"type":"Point","coordinates":[-99.21650129062431,29.16378817392265]},"properties":{"System":"Ranch Water","Source":"Feb 2023 survey","name":"Cut-Off 22 (Ranch Water)","name_src":"seq","layer":"Cut-Offs / Valve Boxes"}},{"type":"Feature","geometry":{"type":"Point","coordinates":[-99.21631356753113,29.18665923248743]},"properties":{"System":"Irrigation","Name":"Irrigation Cutoff","Source":"Feb 2023 survey","name":"Irrigation Cutoff 1","name_src":"field","layer":"Cut-Offs / Valve Boxes","photos":["water-well-meters.jpg"]}},{"type":"Feature","geometry":{"type":"Point","coordinates":[-99.21630679280551,29.18666060884272]},"properties":{"System":"Irrigation","Name":"Inductrial Cutoff","Source":"Feb 2023 survey","name":"Inductrial Cutoff","name_src":"field","layer":"Cut-Offs / Valve Boxes"}},{"type":"Feature","geometry":{"type":"Point","coordinates":[-99.21075637427667,29.19153062948299]},"properties":{"System":"Yancey","Name":"Dove Tank Cutoff","Source":"Feb 2023 survey","name":"Dove Tank Cutoff","name_src":"field","layer":"Cut-Offs / Valve Boxes","photos":["dove-tank-cutoff.jpg"]}},{"type":"Feature","geometry":{"type":"Point","coordinates":[-99.21821753610413,29.18834571062673]},"properties":{"System":"Irrigation","Notes":"Downstream Cutoff","CreationDa":"7/26/2022","EditDate":"7/26/2022","Name":"Downstream Cutoff","Source":"Feb 2023 survey","name":"Downstream Cutoff","name_src":"field","layer":"Cut-Offs / Valve Boxes","photos":["downstream-cutoff.jpg"]}},{"type":"Feature","geometry":{"type":"Point","coordinates":[-99.21823869614994,29.18833427229016]},"properties":{"System":"Irrigation","Notes":"North Field Cutoff","Name":"Upstream Cutoff","Source":"Feb 2023 survey","name":"Upstream Cutoff","name_src":"field","layer":"Cut-Offs / Valve Boxes","photos":["north-field-cutoff.jpg"]}},{"type":"Feature","geometry":{"type":"Point","coordinates":[-99.21823907643753,29.18831999632402]},"properties":{"System":"Irrigation","Notes":"Cutoff To Pivot","Name":"Cutoff To Pivot","Source":"Feb 2023 survey","name":"Cutoff To Pivot","name_src":"field","layer":"Cut-Offs / Valve Boxes","photos":["cutoff-to-pivot.jpg"]}},{"type":"Feature","geometry":{"type":"Point","coordinates":[-99.21704911861167,29.18766342903293]},"properties":{"Source":"2022 survey (post-review)","System":"Yancey","System_Source":"Nearest pipe","name":"Untitled Placemark","name_src":"field","layer":"Cut-Offs / Valve Boxes"}},{"type":"Feature","geometry":{"type":"Point","coordinates":[-99.2168494701299,29.17579760211141]},"properties":{"Source":"2022 survey (post-review)","System":"Ranch Water","System_Source":"Nearest pipe (unconfirmed)","System_Ambiguous":"0.14","name":"Irrigation Cutoff 2","name_src":"field","layer":"Cut-Offs / Valve Boxes"}}]}