{"type":"FeatureCollection","features":[{"type":"Feature","geometry":{"type":"Point","coordinates":[-99.22325762980779,29.17788365679746]},"properties":{"CreationDa":"2022-07-26","Source":"2022 survey shapefile","name":"Electric Box 1","name_src":"seq","layer":"Electric Boxes"}},{"type":"Feature","geometry":{"type":"Point","coordinates":[-99.216295629762,29.18672620691849]},"properties":{"CreationDa":"2022-07-26","Source":"2022 survey shapefile","name":"Electric Box 2","name_src":"seq","layer":"Electric Boxes","photos":["20220726-104554.jpg"]}},{"type":"Feature","geometry":{"type":"Point","coordinates":[-99.2173866534375,29.187447796425293]},"properties":{"CreationDa":"2022-07-26","Source":"2022 survey shapefile","name":"Electric Box 3","name_src":"seq","layer":"Electric Boxes"}}]}