{"type":"FeatureCollection","features":[{"type":"Feature","geometry":{"type":"Point","coordinates":[-99.2129853516412,29.19197051141006]},"properties":{"Type":"Deer feeder","Source":"2017 ranch infrastructure","name":"Deer Feeder 1","name_src":"type","layer":"Feeders"}},{"type":"Feature","geometry":{"type":"Point","coordinates":[-99.21266327319717,29.18840625213448]},"properties":{"Type":"Deer feeder","Source":"2017 ranch infrastructure","name":"Deer Feeder 2","name_src":"type","layer":"Feeders"}},{"type":"Feature","geometry":{"type":"Point","coordinates":[-99.21955626160464,29.17143727236166]},"properties":{"Type":"Deer feeder","Source":"2017 ranch infrastructure","name":"Deer Feeder 3","name_src":"type","layer":"Feeders"}},{"type":"Feature","geometry":{"type":"Point","coordinates":[-99.21883724984816,29.16913661178167]},"properties":{"Type":"Deer feeder","Source":"2017 ranch infrastructure","name":"Deer Feeder 4","name_src":"type","layer":"Feeders"}},{"type":"Feature","geometry":{"type":"Point","coordinates":[-99.22399809713308,29.16442557100096]},"properties":{"Type":"Deer feeder","Source":"2017 ranch infrastructure","name":"Deer Feeder 5","name_src":"type","layer":"Feeders"}},{"type":"Feature","geometry":{"type":"Point","coordinates":[-99.21861782748057,29.16408109037836]},"properties":{"Type":"Deer feeder","Source":"2017 ranch infrastructure","name":"Deer Feeder 6","name_src":"type","layer":"Feeders"}},{"type":"Feature","geometry":{"type":"Point","coordinates":[-99.21121831952459,29.16394643557121]},"properties":{"Type":"Deer feeder","Source":"2017 ranch infrastructure","name":"Deer Feeder 7","name_src":"type","layer":"Feeders"}},{"type":"Feature","geometry":{"type":"Point","coordinates":[-99.2195748836829,29.17071764538953]},"properties":{"Type":"Turkey feeder","Source":"2017 ranch infrastructure","name":"Turkey Feeder 1","name_src":"type","layer":"Feeders"}},{"type":"Feature","geometry":{"type":"Point","coordinates":[-99.21864746561631,29.16915012718284]},"properties":{"Type":"Turkey feeder","Source":"2017 ranch infrastructure","name":"Turkey Feeder 2","name_src":"type","layer":"Feeders"}},{"type":"Feature","geometry":{"type":"Point","coordinates":[-99.22413132238837,29.16570383375866]},"properties":{"Type":"Turkey feeder","Source":"2017 ranch infrastructure","name":"Turkey Feeder 3","name_src":"type","layer":"Feeders"}},{"type":"Feature","geometry":{"type":"Point","coordinates":[-99.21870097354191,29.16424007257937]},"properties":{"Type":"Turkey feeder","Source":"2017 ranch infrastructure","name":"Turkey Feeder 4","name_src":"type","layer":"Feeders"}},{"type":"Feature","geometry":{"type":"Point","coordinates":[-99.21146296524779,29.16385464011913]},"properties":{"Type":"Turkey feeder","Source":"2017 ranch infrastructure","name":"Turkey Feeder 5","name_src":"type","layer":"Feeders"}}]}