{"type":"FeatureCollection","features":[{"type":"Feature","geometry":{"type":"LineString","coordinates":[[-99.21316965728025,29.17107493467807],[-99.21470174048044,29.17242163336259],[-99.21479857528897,29.18579926754971]]},"properties":{"TypeString":"High boundary","Source":"2017 ranch infrastructure","name":"High boundary 1","name_src":"field","layer":"Fences","Length_ft":"5573"}},{"type":"Feature","geometry":{"type":"LineString","coordinates":[[-99.20937424571052,29.17109808566735],[-99.21316970083451,29.17109590666075]]},"properties":{"TypeString":"High boundary","Source":"2017 ranch infrastructure","name":"High boundary 2","name_src":"field","layer":"Fences","Length_ft":"1209"}},{"type":"Feature","geometry":{"type":"LineString","coordinates":[[-99.20914457343251,29.16296342759492],[-99.20919415781555,29.16520729580523],[-99.20937424571052,29.17109808566735]]},"properties":{"TypeString":"High boundary","Source":"2017 ranch infrastructure","name":"High boundary 3","name_src":"field","layer":"Fences","Length_ft":"2969"}},{"type":"Feature","geometry":{"type":"LineString","coordinates":[[-99.22669642292874,29.16284356523263],[-99.20914457343251,29.16296342759492]]},"properties":{"TypeString":"Low boundary","Source":"2017 ranch infrastructure","name":"Low boundary 1","name_src":"field","layer":"Fences","Length_ft":"5592"}},{"type":"Feature","geometry":{"type":"LineString","coordinates":[[-99.22395068401369,29.17100367694079],[-99.22730200362903,29.17099800254589],[-99.22686375104743,29.16496782477211],[-99.22671809895009,29.16280532979767]]},"properties":{"TypeString":"Low boundary","Source":"2017 ranch infrastructure","name":"Low boundary 2","name_src":"field","layer":"Fences","Length_ft":"4062"}},{"type":"Feature","geometry":{"type":"LineString","coordinates":[[-99.22399956120464,29.18215241730721],[-99.22394964592829,29.17100382125424]]},"properties":{"TypeString":"Low boundary","Source":"2017 ranch infrastructure","name":"Low boundary 3","name_src":"field","layer":"Fences","Length_ft":"4067"}},{"type":"Feature","geometry":{"type":"LineString","coordinates":[[-99.21700101017947,29.19298000146238],[-99.2225508959081,29.19293338890854],[-99.2225329666369,29.19204840402651],[-99.22164439931471,29.19146620367962],[-99.2207569443236,29.19057752462189],[-99.22015829558194,29.18958929033481],[-99.21979849473439,29.18853161218828],[-99.21967875132634,29.18743607624974],[-99.2197831991073,29.18637294870646],[-99.21989452646339,29.18603093428388],[-99.22011731852224,29.18541246028904],[-99.22025550477827,29.18515468809408],[-99.22067005937926,29.1843813697057],[-99.22139946300685,29.18362157480584],[-99.22172968972153,29.18334006811487],[-99.22256087804281,29.1827720859241],[-99.22331252730316,29.18243836204276],[-99.22399956120464,29.18215241730721]]},"properties":{"TypeString":"Low boundary","Source":"2017 ranch infrastructure","name":"Low boundary 4","name_src":"field","layer":"Fences","Length_ft":"6613"}},{"type":"Feature","geometry":{"type":"LineString","coordinates":[[-99.21649326952262,29.19300571617871],[-99.2166488890551,29.19302271771364],[-99.21700101017947,29.19298000146238]]},"properties":{"TypeString":"Low boundary","Source":"2017 ranch infrastructure","name":"Low boundary 5","name_src":"field","layer":"Fences","Length_ft":"163"}},{"type":"Feature","geometry":{"type":"LineString","coordinates":[[-99.20924045963173,29.19375856443824],[-99.21254946455187,29.19364567955421],[-99.21330166391047,29.19359195495664],[-99.21428080260476,29.19341849013203],[-99.2153415172531,29.19322339909613],[-99.21617368016557,29.1930286704905]]},"properties":{"TypeString":"Low boundary","Source":"2017 ranch infrastructure","name":"Low boundary 6","name_src":"field","layer":"Fences","Length_ft":"2233"}},{"type":"Feature","geometry":{"type":"LineString","coordinates":[[-99.21479857528897,29.18579926754971],[-99.20914204216471,29.18590388881006],[-99.20924045963173,29.19375856443824]]},"properties":{"TypeString":"Low boundary","Source":"2017 ranch infrastructure","name":"Low boundary 7","name_src":"field","layer":"Fences","Length_ft":"4668"}},{"type":"Feature","geometry":{"type":"LineString","coordinates":[[-99.2199132509298,29.17104387591421],[-99.22375239410707,29.17100383318316]]},"properties":{"TypeString":"Interior","Source":"2017 ranch infrastructure","name":"Interior 1","name_src":"field","layer":"Fences","Length_ft":"1223"}},{"type":"Feature","geometry":{"type":"LineString","coordinates":[[-99.2198191445509,29.16510264418501],[-99.22051633945023,29.16758475537736],[-99.2199132509298,29.17104387591421]]},"properties":{"TypeString":"Interior","Source":"2017 ranch infrastructure","name":"Interior 2","name_src":"field","layer":"Fences","Length_ft":"2209"}},{"type":"Feature","geometry":{"type":"LineString","coordinates":[[-99.22003599792437,29.16302046596296],[-99.21981556450248,29.16497093987891]]},"properties":{"TypeString":"Interior","Source":"2017 ranch infrastructure","name":"Interior 3","name_src":"field","layer":"Fences","Length_ft":"715"}},{"type":"Feature","geometry":{"type":"LineString","coordinates":[[-99.21428035652872,29.16728967043533],[-99.21562886372017,29.16696230812153],[-99.2164471652608,29.16715118543873],[-99.2179238264247,29.16792186464604],[-99.21877943457066,29.1692089394953],[-99.21825201103748,29.17103207863116],[-99.21800837332579,29.17152332564573],[-99.21648576460207,29.17219458918754],[-99.2146540185352,29.17214233134732],[-99.21338674214108,29.17122402641268],[-99.21281135126748,29.17019416591172],[-99.21280189345096,29.16900387385487],[-99.21331697605643,29.16792931918254],[-99.21427336559636,29.16728968167722]]},"properties":{"TypeString":"Interior","Source":"2017 ranch infrastructure","name":"Interior 4","name_src":"field","layer":"Fences","Length_ft":"6000"}},{"type":"Feature","geometry":{"type":"LineString","coordinates":[[-99.21765532626098,29.18021064293032],[-99.22161993852548,29.18115742962783],[-99.22383003205022,29.18134873389719]]},"properties":{"TypeString":"Interior","Source":"2017 ranch infrastructure","name":"Interior 5","name_src":"field","layer":"Fences","Length_ft":"2017"}},{"type":"Feature","geometry":{"type":"LineString","coordinates":[[-99.2173588311361,29.18010279539166],[-99.21478893053647,29.17902364307511]]},"properties":{"TypeString":"Interior","Source":"2017 ranch infrastructure","name":"Interior 6","name_src":"field","layer":"Fences","Length_ft":"908"}},{"type":"Feature","geometry":{"type":"LineString","coordinates":[[-99.21479857528897,29.18579926754971],[-99.21487871403882,29.18653089603764],[-99.21502694680868,29.18657398969232],[-99.21545905024755,29.18658412524778],[-99.21629838489413,29.18651776706304],[-99.21764373221939,29.18638557866802],[-99.21785927536226,29.18324360242818],[-99.21735718329225,29.18010054585496]]},"properties":{"TypeString":"Interior","Source":"2017 ranch infrastructure","name":"Interior 7","name_src":"field","layer":"Fences","Length_ft":"3461"}},{"type":"Feature","geometry":{"type":"LineString","coordinates":[[-99.2137662496585,29.18586102812527],[-99.21385553288948,29.18723669881346],[-99.21448511774007,29.18722485369251],[-99.2145739804121,29.18839469419905],[-99.2146888057864,29.19017115069115],[-99.21482723772655,29.1914275762345],[-99.21486808528684,29.19324748392957]]},"properties":{"TypeString":"Interior","Source":"2017 ranch infrastructure","name":"Interior 8","name_src":"field","layer":"Fences","Length_ft":"2905"}},{"type":"Feature","geometry":{"type":"LineString","coordinates":[[-99.22136447712231,29.18112408166672],[-99.22170022295765,29.18330988807078]]},"properties":{"TypeString":"Interior","Source":"2017 ranch infrastructure","name":"Interior 9","name_src":"field","layer":"Fences","Length_ft":"805"}},{"type":"Feature","geometry":{"type":"LineString","coordinates":[[-99.21762983080005,29.18638209219614],[-99.21976424736273,29.18641681258435]]},"properties":{"TypeString":"Interior","Source":"2017 ranch infrastructure","name":"Interior 10","name_src":"field","layer":"Fences","Length_ft":"680"}},{"type":"Feature","geometry":{"type":"LineString","coordinates":[[-99.21826865652669,29.17104331069501],[-99.21889741412062,29.17103986919321],[-99.21922411637235,29.17102246388604],[-99.2199655041252,29.1710453398805]]},"properties":{"TypeString":"Interior","Source":"2017 ranch infrastructure","name":"Interior 11","name_src":"field","layer":"Fences","Length_ft":"541"}}]}