{"type":"FeatureCollection","features":[{"type":"Feature","geometry":{"type":"Point","coordinates":[-99.21479857528897,29.18579926754971]},"properties":{"Source":"2017 ranch infrastructure","name":"Fence Post 1","name_src":"seq","layer":"Fence Posts"}},{"type":"Feature","geometry":{"type":"Point","coordinates":[-99.214697753073,29.17241263900394]},"properties":{"Source":"2017 ranch infrastructure","name":"Fence Post 2","name_src":"seq","layer":"Fence Posts"}},{"type":"Feature","geometry":{"type":"Point","coordinates":[-99.20937424571052,29.17109808566735]},"properties":{"Source":"2017 ranch infrastructure","name":"Fence Post 3","name_src":"seq","layer":"Fence Posts"}},{"type":"Feature","geometry":{"type":"Point","coordinates":[-99.20920215054039,29.16521514710373]},"properties":{"Source":"2017 ranch infrastructure","name":"Fence Post 4","name_src":"seq","layer":"Fence Posts"}},{"type":"Feature","geometry":{"type":"Point","coordinates":[-99.20914457343251,29.16296342759492]},"properties":{"Source":"2017 ranch infrastructure","name":"Fence Post 5","name_src":"seq","layer":"Fence Posts"}},{"type":"Feature","geometry":{"type":"Point","coordinates":[-99.22666552523341,29.16281841016159]},"properties":{"Source":"2017 ranch infrastructure","name":"Fence Post 6","name_src":"seq","layer":"Fence Posts"}},{"type":"Feature","geometry":{"type":"Point","coordinates":[-99.22686375104743,29.16496782477211]},"properties":{"Source":"2017 ranch infrastructure","name":"Fence Post 7","name_src":"seq","layer":"Fence Posts"}},{"type":"Feature","geometry":{"type":"Point","coordinates":[-99.22728992403572,29.17097515167881]},"properties":{"Source":"2017 ranch infrastructure","name":"Fence Post 8","name_src":"seq","layer":"Fence Posts"}},{"type":"Feature","geometry":{"type":"Point","coordinates":[-99.22394964592829,29.17100382125424]},"properties":{"Source":"2017 ranch infrastructure","name":"Fence Post 9","name_src":"seq","layer":"Fence Posts"}},{"type":"Feature","geometry":{"type":"Point","coordinates":[-99.22399956120464,29.18215241730721]},"properties":{"Source":"2017 ranch infrastructure","name":"Fence Post 10","name_src":"seq","layer":"Fence Posts"}},{"type":"Feature","geometry":{"type":"Point","coordinates":[-99.22331252730316,29.18243836204276]},"properties":{"Source":"2017 ranch infrastructure","name":"Fence Post 11","name_src":"seq","layer":"Fence Posts"}},{"type":"Feature","geometry":{"type":"Point","coordinates":[-99.22256087804281,29.1827720859241]},"properties":{"Source":"2017 ranch infrastructure","name":"Fence Post 12","name_src":"seq","layer":"Fence Posts"}},{"type":"Feature","geometry":{"type":"Point","coordinates":[-99.22172968972153,29.18334006811487]},"properties":{"Source":"2017 ranch infrastructure","name":"Fence Post 13","name_src":"seq","layer":"Fence Posts"}},{"type":"Feature","geometry":{"type":"Point","coordinates":[-99.22139946300685,29.18362157480584]},"properties":{"Source":"2017 ranch infrastructure","name":"Fence Post 14","name_src":"seq","layer":"Fence Posts"}},{"type":"Feature","geometry":{"type":"Point","coordinates":[-99.22067005937926,29.1843813697057]},"properties":{"Source":"2017 ranch infrastructure","name":"Fence Post 15","name_src":"seq","layer":"Fence Posts"}},{"type":"Feature","geometry":{"type":"Point","coordinates":[-99.22025550477827,29.18515468809408]},"properties":{"Source":"2017 ranch infrastructure","name":"Fence Post 16","name_src":"seq","layer":"Fence Posts"}},{"type":"Feature","geometry":{"type":"Point","coordinates":[-99.22011731852224,29.18541246028904]},"properties":{"Source":"2017 ranch infrastructure","name":"Fence Post 17","name_src":"seq","layer":"Fence Posts"}},{"type":"Feature","geometry":{"type":"Point","coordinates":[-99.21989452646339,29.18603093428388]},"properties":{"Source":"2017 ranch infrastructure","name":"Fence Post 18","name_src":"seq","layer":"Fence Posts"}},{"type":"Feature","geometry":{"type":"Point","coordinates":[-99.2197831991073,29.18637294870646]},"properties":{"Source":"2017 ranch infrastructure","name":"Fence Post 19","name_src":"seq","layer":"Fence Posts"}},{"type":"Feature","geometry":{"type":"Point","coordinates":[-99.21967875132634,29.18743607624974]},"properties":{"Source":"2017 ranch infrastructure","name":"Fence Post 20","name_src":"seq","layer":"Fence Posts"}},{"type":"Feature","geometry":{"type":"Point","coordinates":[-99.21979849473439,29.18853161218828]},"properties":{"Source":"2017 ranch infrastructure","name":"Fence Post 21","name_src":"seq","layer":"Fence Posts"}},{"type":"Feature","geometry":{"type":"Point","coordinates":[-99.22015829558194,29.18958929033481]},"properties":{"Source":"2017 ranch infrastructure","name":"Fence Post 22","name_src":"seq","layer":"Fence Posts"}},{"type":"Feature","geometry":{"type":"Point","coordinates":[-99.22164439931471,29.19146620367962]},"properties":{"Source":"2017 ranch infrastructure","name":"Fence Post 23","name_src":"seq","layer":"Fence Posts"}},{"type":"Feature","geometry":{"type":"Point","coordinates":[-99.2216351880084,29.1914692553461]},"properties":{"Source":"2017 ranch infrastructure","name":"Fence Post 24","name_src":"seq","layer":"Fence Posts"}},{"type":"Feature","geometry":{"type":"Point","coordinates":[-99.2225329666369,29.19204840402651]},"properties":{"Source":"2017 ranch infrastructure","name":"Fence Post 25","name_src":"seq","layer":"Fence Posts"}},{"type":"Feature","geometry":{"type":"Point","coordinates":[-99.2225508959081,29.19293338890854]},"properties":{"Source":"2017 ranch infrastructure","name":"Fence Post 26","name_src":"seq","layer":"Fence Posts"}},{"type":"Feature","geometry":{"type":"Point","coordinates":[-99.21700101017947,29.19298000146238]},"properties":{"Source":"2017 ranch infrastructure","name":"Fence Post 27","name_src":"seq","layer":"Fence Posts"}},{"type":"Feature","geometry":{"type":"Point","coordinates":[-99.2166488890551,29.19302271771364]},"properties":{"Source":"2017 ranch infrastructure","name":"Fence Post 28","name_src":"seq","layer":"Fence Posts"}},{"type":"Feature","geometry":{"type":"Point","coordinates":[-99.21649408125612,29.19299955644268]},"properties":{"Source":"2017 ranch infrastructure","name":"Fence Post 29","name_src":"seq","layer":"Fence Posts"}},{"type":"Feature","geometry":{"type":"Point","coordinates":[-99.2207569443236,29.19057752462189]},"properties":{"Source":"2017 ranch infrastructure","name":"Fence Post 30","name_src":"seq","layer":"Fence Posts"}},{"type":"Feature","geometry":{"type":"Point","coordinates":[-99.20914204216471,29.18590388881006]},"properties":{"Source":"2017 ranch infrastructure","name":"Fence Post 31","name_src":"seq","layer":"Fence Posts"}},{"type":"Feature","geometry":{"type":"Point","coordinates":[-99.20924045963173,29.19375856443824]},"properties":{"Source":"2017 ranch infrastructure","name":"Fence Post 32","name_src":"seq","layer":"Fence Posts"}},{"type":"Feature","geometry":{"type":"Point","coordinates":[-99.21254946455187,29.19364567955421]},"properties":{"Source":"2017 ranch infrastructure","name":"Fence Post 33","name_src":"seq","layer":"Fence Posts"}},{"type":"Feature","geometry":{"type":"Point","coordinates":[-99.21631770600689,29.19303827404424]},"properties":{"Source":"2017 ranch infrastructure","name":"Fence Post 34","name_src":"seq","layer":"Fence Posts"}},{"type":"Feature","geometry":{"type":"Point","coordinates":[-99.2199132509298,29.17104387591421]},"properties":{"Source":"2017 ranch infrastructure","name":"Fence Post 35","name_src":"seq","layer":"Fence Posts"}},{"type":"Feature","geometry":{"type":"Point","coordinates":[-99.22051633945023,29.16758475537736]},"properties":{"Source":"2017 ranch infrastructure","name":"Fence Post 36","name_src":"seq","layer":"Fence Posts"}},{"type":"Feature","geometry":{"type":"Point","coordinates":[-99.2198191445509,29.16510264418501]},"properties":{"Source":"2017 ranch infrastructure","name":"Fence Post 37","name_src":"seq","layer":"Fence Posts"}},{"type":"Feature","geometry":{"type":"Point","coordinates":[-99.21981556450248,29.16497093987891]},"properties":{"Source":"2017 ranch infrastructure","name":"Fence Post 38","name_src":"seq","layer":"Fence Posts"}},{"type":"Feature","geometry":{"type":"Point","coordinates":[-99.22003599792437,29.16302046596296]},"properties":{"Source":"2017 ranch infrastructure","name":"Fence Post 39","name_src":"seq","layer":"Fence Posts"}},{"type":"Feature","geometry":{"type":"Point","coordinates":[-99.21427336559636,29.16728968167722]},"properties":{"Source":"2017 ranch infrastructure","name":"Fence Post 40","name_src":"seq","layer":"Fence Posts"}},{"type":"Feature","geometry":{"type":"Point","coordinates":[-99.21331697605643,29.16792931918254]},"properties":{"Source":"2017 ranch infrastructure","name":"Fence Post 41","name_src":"seq","layer":"Fence Posts"}},{"type":"Feature","geometry":{"type":"Point","coordinates":[-99.21280189345096,29.16900387385487]},"properties":{"Source":"2017 ranch infrastructure","name":"Fence Post 42","name_src":"seq","layer":"Fence Posts"}},{"type":"Feature","geometry":{"type":"Point","coordinates":[-99.21281135126748,29.17019416591172]},"properties":{"Source":"2017 ranch infrastructure","name":"Fence Post 43","name_src":"seq","layer":"Fence Posts"}},{"type":"Feature","geometry":{"type":"Point","coordinates":[-99.21338674214108,29.17122402641268]},"properties":{"Source":"2017 ranch infrastructure","name":"Fence Post 44","name_src":"seq","layer":"Fence Posts"}},{"type":"Feature","geometry":{"type":"Point","coordinates":[-99.2146540185352,29.17214233134732]},"properties":{"Source":"2017 ranch infrastructure","name":"Fence Post 45","name_src":"seq","layer":"Fence Posts"}},{"type":"Feature","geometry":{"type":"Point","coordinates":[-99.21648576460207,29.17219458918754]},"properties":{"Source":"2017 ranch infrastructure","name":"Fence Post 46","name_src":"seq","layer":"Fence Posts"}},{"type":"Feature","geometry":{"type":"Point","coordinates":[-99.21800837332579,29.17152332564573]},"properties":{"Source":"2017 ranch infrastructure","name":"Fence Post 47","name_src":"seq","layer":"Fence Posts"}},{"type":"Feature","geometry":{"type":"Point","coordinates":[-99.21825201103748,29.17103207863116]},"properties":{"Source":"2017 ranch infrastructure","name":"Fence Post 48","name_src":"seq","layer":"Fence Posts"}},{"type":"Feature","geometry":{"type":"Point","coordinates":[-99.21877943457066,29.1692089394953]},"properties":{"Source":"2017 ranch infrastructure","name":"Fence Post 49","name_src":"seq","layer":"Fence Posts"}},{"type":"Feature","geometry":{"type":"Point","coordinates":[-99.2179238264247,29.16792186464604]},"properties":{"Source":"2017 ranch infrastructure","name":"Fence Post 50","name_src":"seq","layer":"Fence Posts"}},{"type":"Feature","geometry":{"type":"Point","coordinates":[-99.2164471652608,29.16715118543873]},"properties":{"Source":"2017 ranch infrastructure","name":"Fence Post 51","name_src":"seq","layer":"Fence Posts"}},{"type":"Feature","geometry":{"type":"Point","coordinates":[-99.22383003205022,29.18134873389719]},"properties":{"Source":"2017 ranch infrastructure","name":"Fence Post 52","name_src":"seq","layer":"Fence Posts"}},{"type":"Feature","geometry":{"type":"Point","coordinates":[-99.22161993852548,29.18115742962783]},"properties":{"Source":"2017 ranch infrastructure","name":"Fence Post 53","name_src":"seq","layer":"Fence Posts"}},{"type":"Feature","geometry":{"type":"Point","coordinates":[-99.21765532626098,29.18021064293032]},"properties":{"Source":"2017 ranch infrastructure","name":"Fence Post 54","name_src":"seq","layer":"Fence Posts"}},{"type":"Feature","geometry":{"type":"Point","coordinates":[-99.21476319979462,29.17852535730013]},"properties":{"Source":"2017 ranch infrastructure","name":"Fence Post 55","name_src":"seq","layer":"Fence Posts"}},{"type":"Feature","geometry":{"type":"Point","coordinates":[-99.21733428050467,29.18016783412054]},"properties":{"Source":"2017 ranch infrastructure","name":"Fence Post 56","name_src":"seq","layer":"Fence Posts"}},{"type":"Feature","geometry":{"type":"Point","coordinates":[-99.21785927536226,29.18324360242818]},"properties":{"Source":"2017 ranch infrastructure","name":"Fence Post 57","name_src":"seq","layer":"Fence Posts"}},{"type":"Feature","geometry":{"type":"Point","coordinates":[-99.21764373221939,29.18638557866802]},"properties":{"Source":"2017 ranch infrastructure","name":"Fence Post 58","name_src":"seq","layer":"Fence Posts"}},{"type":"Feature","geometry":{"type":"Point","coordinates":[-99.21487871403882,29.18653089603764]},"properties":{"Source":"2017 ranch infrastructure","name":"Fence Post 59","name_src":"seq","layer":"Fence Posts"}}]}