{"type":"FeatureCollection","features":[{"type":"Feature","geometry":{"type":"LineString","coordinates":[[-99.21221041352013,29.19371517129971],[-99.212967466618,29.19363482857475],[-99.21357937317799,29.19353165802778],[-99.2144025213577,29.19339846932217],[-99.21472643173904,29.19333161333395],[-99.21472553424819,29.19327533320983]]},"properties":{"Source":"Feb 2023 survey","name":"SWTC Line - TxDOT ROW","name_src":"field","layer":"Fiber","Length_ft":"835"}},{"type":"Feature","geometry":{"type":"LineString","coordinates":[[-99.21478558730003,29.1932593270106],[-99.21483341633407,29.19325077957648],[-99.21484641030887,29.19154952068588],[-99.21471452966361,29.19100857882389],[-99.21468481824245,29.18931394649617],[-99.21466392915728,29.18789645504237],[-99.21567091935029,29.18783849670145]]},"properties":{"Source":"Feb 2023 survey","name":"SWTC to Ranch HQ","name_src":"field","layer":"Fiber","Length_ft":"2295"}},{"type":"Feature","geometry":{"type":"Polygon","coordinates":[[[-99.21478487819451,29.19327636867778],[-99.21478209588399,29.19324981181923],[-99.21471986649243,29.19324937004043],[-99.21472114631408,29.19327638812643],[-99.21478487819451,29.19327636867778]]]},"properties":{"Source":"Feb 2023 survey","name":"SWTC Vault","name_src":"field","layer":"Fiber"}}]}