{"type":"FeatureCollection","features":[{"type":"Feature","geometry":{"type":"Point","coordinates":[-99.21792156683173,29.18824820640417]},"properties":{"Name":"The Reservoir","Source":"2017 ranch infrastructure","name":"The Reservoir","name_src":"field","layer":"Lakes & Tanks"}},{"type":"Feature","geometry":{"type":"Point","coordinates":[-99.22330972392554,29.17852573307614]},"properties":{"Name":"Pesca","Source":"2017 ranch infrastructure","name":"Pesca","name_src":"field","layer":"Lakes & Tanks"}},{"type":"Feature","geometry":{"type":"Point","coordinates":[-99.2217117782747,29.17384546867055]},"properties":{"Name":"Pato","Source":"2017 ranch infrastructure","name":"Pato","name_src":"field","layer":"Lakes & Tanks"}},{"type":"Feature","geometry":{"type":"Point","coordinates":[-99.21570781426362,29.16460533702044]},"properties":{"Name":"Encino","Source":"2017 ranch infrastructure","name":"Encino","name_src":"field","layer":"Lakes & Tanks"}},{"type":"Feature","geometry":{"type":"Point","coordinates":[-99.22263817287369,29.18144071463076]},"properties":{"Name":"Coastal","Source":"2017 ranch infrastructure","name":"Coastal","name_src":"field","layer":"Lakes & Tanks"}}]}