{"type":"FeatureCollection","features":[{"type":"Feature","geometry":{"type":"LineString","coordinates":[[-99.21944440727512,29.17537299606539],[-99.21685387587716,29.17579462290762],[-99.21581123300798,29.16954998028432],[-99.21720694636322,29.1671860801813]]},"properties":{"CreationDa":"7/26/2022","EditDate":"7/26/2022","Source":"Feb 2023 survey","name":"Lake Irrigation Line 1","name_src":"seq","layer":"Lake Irrigation Line","System":"Irrigation","Length_ft":"4112"}},{"type":"Feature","geometry":{"type":"LineString","coordinates":[[-99.21979343501808,29.17468277385209],[-99.21975632291874,29.17466719189781],[-99.21944440727512,29.17537299606539],[-99.21972988999151,29.17471306633776]]},"properties":{"CreationDa":"7/26/2022","EditDate":"7/26/2022","Source":"Feb 2023 survey","name":"Lake Irrigation Line 2","name_src":"seq","layer":"Lake Irrigation Line","System":"Irrigation","Length_ft":"546"}},{"type":"Feature","geometry":{"type":"LineString","coordinates":[[-99.21787401170025,29.18327469484016],[-99.22214018263715,29.18196406882314]]},"properties":{"CreationDa":"7/26/2022","EditDate":"7/26/2022","Source":"Feb 2023 survey","name":"Lake Irrigation Line 3","name_src":"seq","layer":"Lake Irrigation Line","System":"Irrigation","Length_ft":"1440"}},{"type":"Feature","geometry":{"type":"LineString","coordinates":[[-99.21822756659809,29.18828393881454],[-99.21825460829473,29.18649177056986]]},"properties":{"Notes":"Possible Alternate","CreationDa":"7/26/2022","EditDate":"7/26/2022","Source":"Feb 2023 survey","name":"Possible Alternate","name_src":"field","layer":"Lake Irrigation Line","System":"Irrigation","Length_ft":"654"}},{"type":"Feature","geometry":{"type":"LineString","coordinates":[[-99.21755615295523,29.1873420466105],[-99.21820859934606,29.18834571062673],[-99.2187307298336,29.18967339295964]]},"properties":{"CreationDa":"7/26/2022","EditDate":"7/26/2022","Source":"Feb 2023 survey","name":"Lake Irrigation Line 4","name_src":"seq","layer":"Lake Irrigation Line","System":"Irrigation","Length_ft":"933"}},{"type":"Feature","geometry":{"type":"LineString","coordinates":[[-99.21749613439546,29.18660283147332],[-99.21755597958034,29.18734201367177]]},"properties":{"CreationDa":"7/26/2022","EditDate":"7/26/2022","Source":"Feb 2023 survey","name":"Lake Irrigation Line 5","name_src":"seq","layer":"Lake Irrigation Line","System":"Irrigation","Length_ft":"270"}},{"type":"Feature","geometry":{"type":"LineString","coordinates":[[-99.21820859934606,29.18834571062673],[-99.21799681343299,29.18836973371998]]},"properties":{"CreationDa":"7/26/2022","EditDate":"7/26/2022","Source":"Feb 2023 survey","name":"Lake Irrigation Line 6","name_src":"seq","layer":"Lake Irrigation Line","System":"Irrigation","Length_ft":"68"}},{"type":"Feature","geometry":{"type":"LineString","coordinates":[[-99.21685387587716,29.17579462290762],[-99.21686200385855,29.17587564741729],[-99.21708747516799,29.18012047876473],[-99.21751417060143,29.18182839886268],[-99.21787401170025,29.18327469484016],[-99.21790196488361,29.18335800468001],[-99.2179072440454,29.18340721279353],[-99.21825460829473,29.18649177056986]]},"properties":{"CreationDa":"7/26/2022","EditDate":"7/26/2022","Source":"Feb 2023 survey","name":"Lake Irrigation Line 7","name_src":"seq","layer":"Lake Irrigation Line","System":"Irrigation","Length_ft":"3938"}},{"type":"Feature","geometry":{"type":"LineString","coordinates":[[-99.21822756659809,29.18828393881461],[-99.21823907643753,29.18831999632408],[-99.21823869614992,29.18833427229014],[-99.21823801638592,29.18834562458679],[-99.21821753610409,29.18834571062682],[-99.21820859934606,29.18834571062682]]},"properties":{"Source":"Feb 2023 survey","name":"Lake Irrigation Line 8","name_src":"seq","layer":"Lake Irrigation Line","System":"Irrigation","Length_ft":"32"}},{"type":"Feature","geometry":{"type":"LineString","coordinates":[[-99.21821720990182,29.18832979030099],[-99.21821753610413,29.18834571062673]]},"properties":{"Source":"Feb 2023 survey","name":"Lake Irrigation Line 9","name_src":"seq","layer":"Lake Irrigation Line","System":"Irrigation","Length_ft":"6"}},{"type":"Feature","geometry":{"type":"LineString","coordinates":[[-99.21655367589729,29.18776900965142],[-99.21634214093973,29.18741418296089],[-99.21632421592695,29.18668246143249],[-99.21631438489268,29.18668268385223]]},"properties":{"Source":"Feb 2023 survey","name":"Lake Irrigation Line 10","name_src":"seq","layer":"Lake Irrigation Line","System":"Irrigation","Length_ft":"416"}},{"type":"Feature","geometry":{"type":"LineString","coordinates":[[-99.21755615295523,29.1873420466105],[-99.21823688095557,29.18834605732133],[-99.2187307298336,29.18967339295964]]},"properties":{"CreationDa":"7/26/2022","EditDate":"7/26/2022","Source":"2022 survey (post-review)","name":"Lake Irrigation Line 11","name_src":"seq","layer":"Lake Irrigation Line","System":"Irrigation","Length_ft":"935"}},{"type":"Feature","geometry":{"type":"LineString","coordinates":[[-99.2154386863883,29.18691490223493],[-99.21631659644073,29.18674613655079],[-99.2163130878179,29.18664546877276],[-99.21641906066782,29.1866369393148],[-99.21692987681331,29.18664617049797],[-99.21693050369674,29.18668541774394],[-99.21825460348605,29.18649208926512]]},"properties":{"Notes":"Irrigation line from Water Well","CreationDa":"7/26/2022","EditDate":"7/26/2022","Source":"2022 survey (post-review)","name":"Irrigation line from Water Well","name_src":"field","layer":"Lake Irrigation Line","System":"Irrigation","Length_ft":"962"}},{"type":"Feature","geometry":{"type":"LineString","coordinates":[[-99.21820859934606,29.18834571062673],[-99.21790431504596,29.1883739560094]]},"properties":{"CreationDa":"7/26/2022","EditDate":"7/26/2022","Source":"2022 survey (post-review)","name":"Lake Irrigation Line 12","name_src":"seq","layer":"Lake Irrigation Line","System":"Irrigation","Length_ft":"97"}},{"type":"Feature","geometry":{"type":"LineString","coordinates":[[-99.2163130878179,29.18664546877276],[-99.21630116099335,29.18664770470296],[-99.21631420764797,29.18667759842739]]},"properties":{"Notes":"Industrial Line","Source":"2022 survey (post-review)","name":"Industrial Line","name_src":"field","layer":"Lake Irrigation Line","System":"Irrigation","Length_ft":"16"}}]}