{"type":"FeatureCollection","features":[{"type":"Feature","geometry":{"type":"Point","coordinates":[-99.21660843661866,29.19303364967203]},"properties":{"CreationDa":"7/26/2022","EditDate":"7/26/2022","System":"Yancey","Source":"Feb 2023 survey","name":"Manifold 1 (Yancey)","name_src":"seq","layer":"Manifolds","photos":["manifold.jpg"]}},{"type":"Feature","geometry":{"type":"Point","coordinates":[-99.21822756659809,29.18828393881454]},"properties":{"CreationDa":"7/26/2022","EditDate":"7/26/2022","System":"Irrigation","Source":"Feb 2023 survey","name":"Manifold 2 (Irrigation)","name_src":"seq","layer":"Manifolds"}},{"type":"Feature","geometry":{"type":"Point","coordinates":[-99.2163130878179,29.18664546877276]},"properties":{"CreationDa":"7/26/2022","EditDate":"7/26/2022","System":"Irrigation","Source":"Feb 2023 survey","name":"Manifold 3 (Irrigation)","name_src":"seq","layer":"Manifolds"}},{"type":"Feature","geometry":{"type":"Point","coordinates":[-99.2174882941381,29.18660151272227]},"properties":{"Source":"2022 survey (post-review)","name":"Untitled Placemark 1","name_src":"field","layer":"Manifolds"}},{"type":"Feature","geometry":{"type":"Point","coordinates":[-99.2182388650706,29.18832629381807]},"properties":{"Source":"2022 survey (post-review)","name":"Untitled Placemark 2","name_src":"field","layer":"Manifolds"}}]}