{"type":"FeatureCollection","features":[{"type":"Feature","geometry":{"type":"Point","coordinates":[-99.21631092285763,29.18665683352653]},"properties":{"Name":"Industrial Meter","Source":"Feb 2023 survey","System":"Irrigation","System_Source":"Nearest pipe (unconfirmed)","System_Ambiguous":"0.57","name":"Industrial Meter","name_src":"field","layer":"Meters","photos":["p-a-ww.jpg","water-well-meters-2.jpg"]}},{"type":"Feature","geometry":{"type":"Point","coordinates":[-99.2163212078775,29.18665561041615]},"properties":{"Name":"Irrigation Meter","Source":"Feb 2023 survey","System":"Yancey","System_Source":"Nearest pipe (unconfirmed)","System_Ambiguous":"0.58","name":"Irrigation Meter","name_src":"field","layer":"Meters"}}]}