{"type":"FeatureCollection","features":[{"type":"Feature","geometry":{"type":"Point","coordinates":[-99.2162329,29.1867169]},"properties":{"name":"20220726 104554","layer":"Survey Photos","photos":["20220726-104554.jpg"],"Date":"2022-07-26","Geotag":"EXIF GPS","Placemark":""}},{"type":"Feature","geometry":{"type":"Point","coordinates":[-99.2182385,29.188335]},"properties":{"name":"Cutoff To Pivot","layer":"Survey Photos","photos":["cutoff-to-pivot.jpg"],"Date":"","Geotag":"KML placemark link","Placemark":"Cutoff To Pivot"}},{"type":"Feature","geometry":{"type":"Point","coordinates":[-99.2107564,29.1915306]},"properties":{"name":"Dove Tank Cutoff","layer":"Survey Photos","photos":["dove-tank-cutoff.jpg"],"Date":"","Geotag":"KML placemark link","Placemark":""}},{"type":"Feature","geometry":{"type":"Point","coordinates":[-99.2182175,29.1883457]},"properties":{"name":"Downstream Cutoff","layer":"Survey Photos","photos":["downstream-cutoff.jpg"],"Date":"2022-07-26","Geotag":"KML placemark link","Placemark":"Downstream Cutoff"}},{"type":"Feature","geometry":{"type":"Point","coordinates":[-99.217255,29.1877076]},"properties":{"name":"Ice Machine Cutoff","layer":"Survey Photos","photos":["ice-machine-cutoff.jpg"],"Date":"","Geotag":"KML placemark link","Placemark":""}},{"type":"Feature","geometry":{"type":"Point","coordinates":[-99.2187318,29.1896657]},"properties":{"name":"Irr North Riser Raw","layer":"Survey Photos","photos":["irr-north-riser-raw.jpg"],"Date":"2022-07-26","Geotag":"KML placemark link","Placemark":"Irrigation North Riser"}},{"type":"Feature","geometry":{"type":"Point","coordinates":[-99.2187318,29.1896657]},"properties":{"name":"Irr North Riser","layer":"Survey Photos","photos":["irr-north-riser.jpg"],"Date":"","Geotag":"KML placemark link","Placemark":"Irrigation North Riser"}},{"type":"Feature","geometry":{"type":"Point","coordinates":[-99.215836,29.1695732]},"properties":{"name":"Irrigation Pivot","layer":"Survey Photos","photos":["irrigation-pivot.jpg"],"Date":"","Geotag":"KML placemark link","Placemark":""}},{"type":"Feature","geometry":{"type":"Point","coordinates":[-99.2166084,29.1930336]},"properties":{"name":"Manifold","layer":"Survey Photos","photos":["manifold.jpg"],"Date":"","Geotag":"KML placemark link","Placemark":""}},{"type":"Feature","geometry":{"type":"Point","coordinates":[-99.2149829,29.1927706]},"properties":{"name":"Misc valve","layer":"Survey Photos","photos":["misc-valve.jpg"],"Date":"","Geotag":"KML placemark link","Placemark":""}},{"type":"Feature","geometry":{"type":"Point","coordinates":[-99.21823,29.1883448]},"properties":{"name":"North Field Cutoff","layer":"Survey Photos","photos":["north-field-cutoff.jpg"],"Date":"2022-07-26","Geotag":"KML placemark link","Placemark":"North Field Cutoff"}},{"type":"Feature","geometry":{"type":"Point","coordinates":[-99.2163141,29.1866518]},"properties":{"name":"P A WW","layer":"Survey Photos","photos":["p-a-ww.jpg"],"Date":"","Geotag":"KML placemark link","Placemark":"0"}},{"type":"Feature","geometry":{"type":"Point","coordinates":[-99.222153,29.1819459]},"properties":{"name":"Pond Irrigation","layer":"Survey Photos","photos":["pond-irrigation.jpg"],"Date":"","Geotag":"KML placemark link","Placemark":""}},{"type":"Feature","geometry":{"type":"Point","coordinates":[-99.2168539,29.1757946]},"properties":{"name":"Ranch Valve","layer":"Survey Photos","photos":["ranch-valve.jpg"],"Date":"","Geotag":"KML placemark link","Placemark":""}},{"type":"Feature","geometry":{"type":"Point","coordinates":[-99.2138485,29.1893364]},"properties":{"name":"Ranch Water Supply Line","layer":"Survey Photos","photos":["ranch-water-supply-line.jpg"],"Date":"","Geotag":"KML placemark link","Placemark":"RW Supply Line"}},{"type":"Feature","geometry":{"type":"Point","coordinates":[-99.2170762,29.1800739]},"properties":{"name":"Riser RW","layer":"Survey Photos","photos":["riser-rw.jpg"],"Date":"","Geotag":"KML placemark link","Placemark":"Ranch Water Riser"}},{"type":"Feature","geometry":{"type":"Point","coordinates":[-99.2167931,29.1724359]},"properties":{"name":"Riser RW 1","layer":"Survey Photos","photos":["riser-rw-1.jpg"],"Date":"","Geotag":"KML placemark link","Placemark":"Ranch Water Riser"}},{"type":"Feature","geometry":{"type":"Point","coordinates":[-99.2136802,29.1896399]},"properties":{"name":"Shooting Range Vales","layer":"Survey Photos","photos":["shooting-range-vales.jpg"],"Date":"","Geotag":"KML placemark link","Placemark":""}},{"type":"Feature","geometry":{"type":"Point","coordinates":[-99.2148446,29.1880092]},"properties":{"name":"W T Valve","layer":"Survey Photos","photos":["w-t-valve.jpg"],"Date":"","Geotag":"KML placemark link","Placemark":""}},{"type":"Feature","geometry":{"type":"Point","coordinates":[-99.217907,29.1883652]},"properties":{"name":"Water Irrigation Intake","layer":"Survey Photos","photos":["water-irrigation-intake.jpg"],"Date":"","Geotag":"KML placemark link","Placemark":"Water Irrigation Intake"}},{"type":"Feature","geometry":{"type":"Point","coordinates":[-99.2154388,29.1869121]},"properties":{"name":"Water Well Active","layer":"Survey Photos","photos":["water-well-active.jpg"],"Date":"","Geotag":"KML placemark link","Placemark":"Los Amigos Water Well"}},{"type":"Feature","geometry":{"type":"Point","coordinates":[-99.2163136,29.1866592]},"properties":{"name":"Water Well Meters","layer":"Survey Photos","photos":["water-well-meters.jpg"],"Date":"","Geotag":"KML placemark link","Placemark":""}},{"type":"Feature","geometry":{"type":"Point","coordinates":[-99.2163032,29.1866525]},"properties":{"name":"Water Well Meters 2","layer":"Survey Photos","photos":["water-well-meters-2.jpg"],"Date":"2022-07-26","Geotag":"KML placemark link","Placemark":"0"}},{"type":"Feature","geometry":{"type":"Point","coordinates":[-99.2231655,29.1778925]},"properties":{"name":"Y RW Mains","layer":"Survey Photos","photos":["y-rw-mains.jpg"],"Date":"","Geotag":"KML placemark link","Placemark":""}},{"type":"Feature","geometry":{"type":"Point","coordinates":[-99.2148375,29.1880077]},"properties":{"name":"Yancey Transfer","layer":"Survey Photos","photos":["yancey-transfer.jpg"],"Date":"","Geotag":"KML placemark link","Placemark":"Yancey Water Transfer Point"}},{"type":"Feature","geometry":{"type":"Point","coordinates":[-99.2156881,29.1879528]},"properties":{"name":"Yancey Valve Box","layer":"Survey Photos","photos":["yancey-valve-box.jpg"],"Date":"","Geotag":"KML placemark link","Placemark":""}},{"type":"Feature","geometry":{"type":"Point","coordinates":[-99.216019,29.1637576]},"properties":{"name":"Yancey Valves","layer":"Survey Photos","photos":["yancey-valves.jpg"],"Date":"","Geotag":"KML placemark link","Placemark":""}}]}