{"type":"FeatureCollection","features":[{"type":"Feature","geometry":{"type":"Point","coordinates":[-99.21686660505137,29.18763738762784]},"properties":{"Type":"HQ","Source":"2017 ranch infrastructure","name":"HQ","name_src":"type","layer":"Ranch Sites & Buildings"}},{"type":"Feature","geometry":{"type":"Point","coordinates":[-99.22117971291345,29.17274567480896]},"properties":{"Type":"Fort","Source":"2017 ranch infrastructure","name":"Fort","name_src":"type","layer":"Ranch Sites & Buildings"}},{"type":"Feature","geometry":{"type":"Point","coordinates":[-99.21656850169654,29.16403856674942]},"properties":{"Name":"Medina Cantina","Type":"Medina Cantina","Source":"2017 ranch infrastructure","name":"Medina Cantina","name_src":"field","layer":"Ranch Sites & Buildings"}},{"type":"Feature","geometry":{"type":"Point","coordinates":[-99.21732685468344,29.18785846741007]},"properties":{"Type":"Boat house","Source":"2017 ranch infrastructure","name":"Boat House 1","name_src":"type","layer":"Ranch Sites & Buildings"}},{"type":"Feature","geometry":{"type":"Point","coordinates":[-99.22341070309038,29.17809124804832]},"properties":{"Type":"Boat house","Source":"2017 ranch infrastructure","name":"Boat House 2","name_src":"type","layer":"Ranch Sites & Buildings"}},{"type":"Feature","geometry":{"type":"Point","coordinates":[-99.22048587628043,29.17368390314827]},"properties":{"Type":"Boat house","Source":"2017 ranch infrastructure","name":"Boat House 3","name_src":"type","layer":"Ranch Sites & Buildings"}},{"type":"Feature","geometry":{"type":"Point","coordinates":[-99.21600667982207,29.16396373581012]},"properties":{"Type":"Boat house","Source":"2017 ranch infrastructure","name":"Boat House 4","name_src":"type","layer":"Ranch Sites & Buildings"}},{"type":"Feature","geometry":{"type":"Point","coordinates":[-99.21629599742276,29.18669154490518]},"properties":{"Type":"Pumphouse","Source":"2017 ranch infrastructure","name":"Pumphouse","name_src":"type","layer":"Ranch Sites & Buildings"}},{"type":"Feature","geometry":{"type":"Point","coordinates":[-99.21352527482871,29.18992394989148]},"properties":{"Type":"Restrooms","Source":"2017 ranch infrastructure","name":"Restrooms 1","name_src":"type","layer":"Ranch Sites & Buildings"}},{"type":"Feature","geometry":{"type":"Point","coordinates":[-99.21607177666384,29.1635870732664]},"properties":{"Type":"Restrooms","Source":"2017 ranch infrastructure","name":"Restrooms 2","name_src":"type","layer":"Ranch Sites & Buildings"}},{"type":"Feature","geometry":{"type":"Point","coordinates":[-99.21638435721299,29.19308040312418]},"properties":{"Type":"Entrance","Source":"2017 ranch infrastructure","name":"Entrance","name_src":"type","layer":"Ranch Sites & Buildings"}},{"type":"Feature","geometry":{"type":"Point","coordinates":[-99.21868074454959,29.17894613583179]},"properties":{"Type":"Dump","Source":"2017 ranch infrastructure","name":"Dump","name_src":"type","layer":"Ranch Sites & Buildings"}},{"type":"Feature","geometry":{"type":"Point","coordinates":[-99.21389878128082,29.18990921143382]},"properties":{"Type":"Shotgun range","Source":"2017 ranch infrastructure","name":"Shotgun Range","name_src":"type","layer":"Ranch Sites & Buildings"}},{"type":"Feature","geometry":{"type":"Point","coordinates":[-99.21683630746432,29.16326132097572]},"properties":{"Type":"Rifle range","Source":"2017 ranch infrastructure","name":"Rifle Range","name_src":"type","layer":"Ranch Sites & Buildings"}}]}