{"type":"FeatureCollection","features":[{"type":"Feature","geometry":{"type":"LineString","coordinates":[[-99.21507768042507,29.19268191328367],[-99.21564419038258,29.19225786685168],[-99.21635658314898,29.19291056352161]]},"properties":{"CreationDa":"7/26/2022","EditDate":"7/26/2022","Source":"Feb 2023 survey","name":"Ranch Water Line 1","name_src":"seq","layer":"Ranch Water Line","System":"Ranch Water","Length_ft":"567"}},{"type":"Feature","geometry":{"type":"LineString","coordinates":[[-99.21507503578485,29.19268411379156],[-99.21498287043335,29.19277059308583]]},"properties":{"CreationDa":"7/26/2022","EditDate":"7/26/2022","Source":"Feb 2023 survey","name":"Ranch Water Line 2","name_src":"seq","layer":"Ranch Water Line","System":"Ranch Water","Length_ft":"43"}},{"type":"Feature","geometry":{"type":"LineString","coordinates":[[-99.21482940674174,29.18673220965014],[-99.21484701012807,29.18775093258527],[-99.21484464306732,29.18800918360913],[-99.2148584896991,29.18869560793014],[-99.21487300647411,29.19008357696042],[-99.21488171479922,29.19077883224423],[-99.21492639858793,29.19114485196059],[-99.21510323230534,29.1915581787772],[-99.21536705680298,29.19192357323552],[-99.21564419038258,29.1922578668517]]},"properties":{"CreationDa":"7/26/2022","EditDate":"7/26/2022","Source":"Feb 2023 survey","name":"Ranch Water Line 3","name_src":"seq","layer":"Ranch Water Line","System":"Ranch Water","Length_ft":"2080"}},{"type":"Feature","geometry":{"type":"LineString","coordinates":[[-99.21602470505884,29.16375860968001],[-99.21602359833442,29.16372488048264],[-99.21451580128284,29.16377335472803],[-99.21449898482071,29.16389525760724],[-99.21406690235557,29.16389506855836],[-99.21426374120063,29.16504044196797],[-99.2144712493363,29.16720483071878],[-99.21508303079091,29.16836054718344],[-99.21554464481952,29.16929712129198],[-99.21583597979742,29.16957320299251],[-99.21678699295106,29.17126913989182],[-99.21678461061892,29.17206547434917],[-99.21679342039691,29.17243556980023]]},"properties":{"CreationDa":"7/26/2022","EditDate":"7/26/2022","Source":"Feb 2023 survey","name":"Ranch Water Line 4","name_src":"seq","layer":"Ranch Water Line","System":"Ranch Water","Length_ft":"3978"}},{"type":"Feature","geometry":{"type":"LineString","coordinates":[[-99.22026424655007,29.17354713371457],[-99.21942459664959,29.1753903755448]]},"properties":{"CreationDa":"7/26/2022","EditDate":"7/26/2022","Source":"Feb 2023 survey","name":"Ranch Water Line 5","name_src":"seq","layer":"Ranch Water Line","System":"Ranch Water","Length_ft":"724"}},{"type":"Feature","geometry":{"type":"LineString","coordinates":[[-99.2207243348925,29.17267765982204],[-99.2203506069882,29.17337200368324]]},"properties":{"CreationDa":"7/26/2022","EditDate":"7/26/2022","Source":"Feb 2023 survey","name":"Ranch Water Line 6","name_src":"seq","layer":"Ranch Water Line","System":"Ranch Water","Length_ft":"280"}},{"type":"Feature","geometry":{"type":"LineString","coordinates":[[-99.21750065423163,29.18659933348419],[-99.21756184557916,29.18733480400566],[-99.21820189791404,29.18829203116445]]},"properties":{"CreationDa":"7/26/2022","EditDate":"7/26/2022","Source":"Feb 2023 survey","name":"Ranch Water Line 7","name_src":"seq","layer":"Ranch Water Line","System":"Ranch Water","Length_ft":"673"}},{"type":"Feature","geometry":{"type":"LineString","coordinates":[[-99.20929153017042,29.18930623627987],[-99.20932321015724,29.1867087767218]]},"properties":{"CreationDa":"7/26/2022","EditDate":"7/26/2022","Source":"Feb 2023 survey","name":"Ranch Water Line 8","name_src":"seq","layer":"Ranch Water Line","System":"Ranch Water","Length_ft":"948"}},{"type":"Feature","geometry":{"type":"LineString","coordinates":[[-99.20952586020385,29.1898834038972],[-99.20930421168725,29.19005619068341],[-99.20929153017042,29.18930623627987]]},"properties":{"CreationDa":"7/26/2022","EditDate":"7/26/2022","Source":"Feb 2023 survey","name":"Ranch Water Line 9","name_src":"seq","layer":"Ranch Water Line","System":"Ranch Water","Length_ft":"368"}},{"type":"Feature","geometry":{"type":"LineString","coordinates":[[-99.21498287043335,29.19277059308583],[-99.21449400725571,29.19282155525476],[-99.21435960311955,29.19275674699311]]},"properties":{"CreationDa":"7/26/2022","EditDate":"7/26/2022","Source":"Feb 2023 survey","name":"Ranch Water Line 10","name_src":"seq","layer":"Ranch Water Line","System":"Ranch Water","Length_ft":"206"}},{"type":"Feature","geometry":{"type":"LineString","coordinates":[[-99.20932321015724,29.1867087767218],[-99.20932129674254,29.186682237598],[-99.20991525158786,29.18658571798584],[-99.20961875993339,29.18597916652671],[-99.21377143044825,29.18595208760108],[-99.21381357221485,29.18665852200013],[-99.21429279383841,29.1867237241288],[-99.21448265007875,29.18674015752769],[-99.21481464535994,29.18670361257589],[-99.21482970505393,29.18670315789681]]},"properties":{"CreationDa":"7/26/2022","EditDate":"7/26/2022","Source":"Feb 2023 survey","name":"Ranch Water Line 11","name_src":"seq","layer":"Ranch Water Line","System":"Ranch Water","Length_ft":"2350"}},{"type":"Feature","geometry":{"type":"LineString","coordinates":[[-99.21486925887345,29.18972526545338],[-99.21371149289656,29.18969545671532]]},"properties":{"Source":"Feb 2023 survey","name":"Ranch Water Line 12","name_src":"seq","layer":"Ranch Water Line","System":"Ranch Water","Length_ft":"369"}},{"type":"Feature","geometry":{"type":"LineString","coordinates":[[-99.21684801747485,29.17580072637967],[-99.21942459664959,29.1753903755448]]},"properties":{"Source":"Feb 2023 survey","name":"Ranch Water Line 13","name_src":"seq","layer":"Ranch Water Line","System":"Ranch Water","Length_ft":"834"}},{"type":"Feature","geometry":{"type":"LineString","coordinates":[[-99.22316868402393,29.17787890086838],[-99.22169173152598,29.17809003008837],[-99.22158109232063,29.17802266110228],[-99.22149379518306,29.17800921123231],[-99.22131471605034,29.17698406094592],[-99.22117237548642,29.17668292806189],[-99.22015941854673,29.17592359277297],[-99.219848385868,29.17546063343987],[-99.21942459664959,29.1753903755448]]},"properties":{"CreationDa":"7/26/2022","EditDate":"7/26/2022","Source":"Feb 2023 survey","name":"Ranch Water Line 14","name_src":"seq","layer":"Ranch Water Line","System":"Ranch Water","Length_ft":"1804"}},{"type":"Feature","geometry":{"type":"LineString","coordinates":[[-99.21482940674179,29.18673220965012],[-99.21484701012808,29.18775093258524],[-99.21484464306732,29.1880091836091],[-99.21485848969913,29.18869560793016],[-99.21487300647411,29.19008357696032],[-99.21564419038258,29.19225786685168]]},"properties":{"CreationDa":"7/26/2022","EditDate":"7/26/2022","Source":"2022 survey (post-review)","name":"Ranch Water Line 15","name_src":"seq","layer":"Ranch Water Line","System":"Ranch Water","Length_ft":"2053"}},{"type":"Feature","geometry":{"type":"LineString","coordinates":[[-99.20952586020385,29.1898834038972],[-99.20930158751047,29.18988567067734],[-99.20929153017042,29.18930623627987]]},"properties":{"CreationDa":"7/26/2022","EditDate":"7/26/2022","Source":"2022 survey (post-review)","name":"Ranch Water Line 16","name_src":"seq","layer":"Ranch Water Line","System":"Ranch Water","Length_ft":"283"}},{"type":"Feature","geometry":{"type":"LineString","coordinates":[[-99.2169740138391,29.17802982212073],[-99.21661898354,29.17803299870392]]},"properties":{"Source":"2022 survey (post-review)","name":"Untitled Path 1","name_src":"field","layer":"Ranch Water Line","System":"Ranch Water","Length_ft":"113"}},{"type":"Feature","geometry":{"type":"LineString","coordinates":[[-99.21579395885034,29.16956332481392],[-99.21567643367649,29.16961619957615]]},"properties":{"Source":"2022 survey (post-review)","name":"Untitled Path 2","name_src":"field","layer":"Ranch Water Line","System":"Ranch Water","Length_ft":"42"}}]}