{"type":"FeatureCollection","features":[{"type":"Feature","geometry":{"type":"Point","coordinates":[-99.21707624957422,29.18007394014836]},"properties":{"System":"Ranch Water","Notes":"Ranch Water Riser","CreationDa":"7/26/2022","EditDate":"7/26/2022","Source":"Feb 2023 survey","name":"Ranch Water Riser 1","name_src":"field","layer":"Risers","photos":["riser-rw.jpg"]}},{"type":"Feature","geometry":{"type":"Point","coordinates":[-99.21685378987895,29.1757990563572]},"properties":{"System":"Ranch Water","Notes":"Ranch Water Riser","CreationDa":"7/26/2022","EditDate":"7/26/2022","Source":"Feb 2023 survey","name":"Ranch Water Riser 2","name_src":"field","layer":"Risers"}},{"type":"Feature","geometry":{"type":"Point","coordinates":[-99.21680216998777,29.1729132233451]},"properties":{"System":"Ranch Water","Notes":"Ranch Water Riser","CreationDa":"7/26/2022","EditDate":"7/26/2022","Source":"Feb 2023 survey","name":"Ranch Water Riser 3","name_src":"field","layer":"Risers"}},{"type":"Feature","geometry":{"type":"Point","coordinates":[-99.21679309341015,29.1724358529578]},"properties":{"System":"Ranch Water","Notes":"Ranch Water Riser","CreationDa":"7/26/2022","EditDate":"7/26/2022","Source":"Feb 2023 survey","name":"Ranch Water Riser 4","name_src":"field","layer":"Risers","photos":["riser-rw-1.jpg"]}},{"type":"Feature","geometry":{"type":"Point","coordinates":[-99.21678962681146,29.17206427033689]},"properties":{"System":"Ranch Water","Notes":"Ranch Water Riser","CreationDa":"7/26/2022","EditDate":"7/26/2022","Source":"Feb 2023 survey","name":"Ranch Water Riser 5","name_src":"field","layer":"Risers"}},{"type":"Feature","geometry":{"type":"Point","coordinates":[-99.21583597979742,29.16957320299251]},"properties":{"System":"Ranch Water","CreationDa":"7/26/2022","EditDate":"7/26/2022","Source":"Feb 2023 survey","name":"Riser 1 (Ranch Water)","name_src":"seq","layer":"Risers","photos":["irrigation-pivot.jpg"]}},{"type":"Feature","geometry":{"type":"Point","coordinates":[-99.22215304965633,29.1819459133148]},"properties":{"System":"Irrigation","CreationDa":"7/26/2022","EditDate":"7/26/2022","Source":"Feb 2023 survey","name":"Riser 2 (Irrigation)","name_src":"seq","layer":"Risers","photos":["pond-irrigation.jpg"]}},{"type":"Feature","geometry":{"type":"Point","coordinates":[-99.2187317530147,29.1896656635075]},"properties":{"System":"Irrigation","Notes":"Irrigation North Riser","CreationDa":"7/26/2022","EditDate":"7/26/2022","Source":"Feb 2023 survey","name":"Irrigation North Riser","name_src":"field","layer":"Risers","photos":["irr-north-riser-raw.jpg","irr-north-riser.jpg"]}},{"type":"Feature","geometry":{"type":"Point","coordinates":[-99.21371149289656,29.18969545671532]},"properties":{"System":"Ranch Water","CreationDa":"7/26/2022","EditDate":"7/26/2022","Source":"Feb 2023 survey","name":"Riser 3 (Ranch Water)","name_src":"seq","layer":"Risers"}},{"type":"Feature","geometry":{"type":"Point","coordinates":[-99.21384852640159,29.18933635662053]},"properties":{"System":"Ranch Water","Notes":"RW Supply Line","CreationDa":"7/26/2022","EditDate":"7/26/2022","Source":"Feb 2023 survey","name":"RW Supply Line","name_src":"field","layer":"Risers","photos":["ranch-water-supply-line.jpg"]}}]}