{"type":"FeatureCollection","features":[{"type":"Feature","geometry":{"type":"LineString","coordinates":[[-99.21476678608072,29.19012318158443],[-99.21478682007374,29.19047862408293],[-99.21477767048856,29.19071562200822],[-99.21481181089858,29.19089753676015],[-99.21488473561524,29.19117672086466],[-99.21504475427153,29.19159118286073],[-99.2152141082747,29.19185751533248],[-99.21595882989507,29.19281693912236],[-99.21616630795481,29.19286315320615],[-99.21630144386768,29.19290948438739],[-99.21639331766809,29.19302359488339]]},"properties":{"Class":"1","Source":"2017 ranch infrastructure","name":"Road 1","name_src":"seq","layer":"Roads","Length_ft":"1247"}},{"type":"Feature","geometry":{"type":"LineString","coordinates":[[-99.21476678608072,29.19012318158443],[-99.21479044414193,29.18999972783452],[-99.21490442965533,29.18986346061723],[-99.21505103347316,29.18971281704692],[-99.21525487752719,29.18961221537752],[-99.21540983855417,29.18955466689971],[-99.21563828822644,29.18951132389122],[-99.21582600285925,29.18950385823588],[-99.21608719229205,29.18950343502529],[-99.21640559168519,29.18953872929687],[-99.21681375922702,29.18956671499418],[-99.21705041643118,29.18954484345831],[-99.2172543946522,29.18950869934243],[-99.2174011776109,29.18944400006332],[-99.217555999502,29.18932198847686],[-99.21773524812436,29.18917128774448],[-99.21787362438987,29.18899200452707],[-99.2179711588214,29.18879846343165],[-99.21806861679151,29.18856911150797],[-99.21805169917234,29.18828980946614],[-99.21795331357022,29.18808226513152],[-99.2177977937951,29.18787481319681],[-99.21758526167494,29.18772475229663],[-99.21755224930399,29.18755291089222],[-99.21727405955662,29.18723106225288],[-99.21722492105746,29.18715235696695],[-99.21723291573092,29.18707355945351],[-99.21724913348815,29.18702339669998],[-99.2172816751038,29.18697320823469],[-99.21735495101589,29.18688714064767],[-99.21735476899016,29.18680119374116],[-99.21734643970215,29.1867224219365],[-99.21734625768383,29.18663647502853],[-99.21732165113795,29.18657921701748],[-99.21725624976659,29.18652918822665],[-99.2171990856303,29.18651495686441],[-99.21711746663232,29.18651508985319],[-99.21647279585628,29.18657343664992],[-99.21602396596833,29.18660997578559],[-99.21567301848236,29.18661770688264],[-99.21502015380185,29.18666173537549],[-99.21493043328508,29.18669052916212],[-99.2148733893463,29.18673359474328],[-99.21485718546715,29.1867909190006],[-99.21485724544515,29.18681956797069],[-99.21484920398652,29.18687687906749],[-99.21486579775804,29.18700577401741],[-99.21487445404301,29.18724211530589],[-99.21484216605556,29.18741406174904],[-99.2147853025807,29.18754307419161],[-99.21475284846105,29.18763623639989],[-99.21475317818292,29.18779380572058],[-99.21476678608072,29.19012318158443]]},"properties":{"Class":"1","Source":"2017 ranch infrastructure","name":"Road 2","name_src":"seq","layer":"Roads","Length_ft":"4211"}},{"type":"Feature","geometry":{"type":"LineString","coordinates":[[-99.21770317929324,29.1864619425579],[-99.2172006468721,29.18651608043148]]},"properties":{"Class":"1","Source":"2017 ranch infrastructure","name":"Road 3","name_src":"seq","layer":"Roads","Length_ft":"161"}},{"type":"Feature","geometry":{"type":"LineString","coordinates":[[-99.21872619331715,29.18613712951502],[-99.21872997987323,29.18618559391852],[-99.21873006595935,29.18622598580822],[-99.21870621601742,29.18626641788133],[-99.21867499470919,29.18630362988848],[-99.21861431896845,29.18634250628398],[-99.21856647886877,29.18635712584298],[-99.21846525756793,29.18637829540576],[-99.21830878450946,29.18639147772237],[-99.2179608716302,29.18642597667782],[-99.21780073574314,29.18644885815002],[-99.21770317929324,29.1864619425579]]},"properties":{"Class":"1","Source":"2017 ranch infrastructure","name":"Road 4","name_src":"seq","layer":"Roads","Length_ft":"384"}},{"type":"Feature","geometry":{"type":"LineString","coordinates":[[-99.2183775551228,29.18463860128304],[-99.21872619331715,29.18613712951502]]},"properties":{"Class":"1","Source":"2017 ranch infrastructure","name":"Road 5","name_src":"seq","layer":"Roads","Length_ft":"558"}},{"type":"Feature","geometry":{"type":"LineString","coordinates":[[-99.21809933695089,29.18334089366788],[-99.2183775551228,29.18463860128304]]},"properties":{"Class":"1","Source":"2017 ranch infrastructure","name":"Road 6","name_src":"seq","layer":"Roads","Length_ft":"482"}},{"type":"Feature","geometry":{"type":"LineString","coordinates":[[-99.21752311506283,29.1802253457579],[-99.21754410076088,29.18049986630723],[-99.2175595680538,29.18063174145224],[-99.21763401001284,29.18120401058783],[-99.21766842131774,29.1813949485853],[-99.21773011340585,29.18162165380857],[-99.21779197041654,29.18192594946832],[-99.21799109750731,29.1828149410184],[-99.21809933695089,29.18334089366788]]},"properties":{"Class":"1","Source":"2017 ranch infrastructure","name":"Road 7","name_src":"seq","layer":"Roads","Length_ft":"1153"}},{"type":"Feature","geometry":{"type":"LineString","coordinates":[[-99.21722128092945,29.17915381623833],[-99.2172155048783,29.17921958321095],[-99.21721179245779,29.17932860739656],[-99.21722584038365,29.17944452533541],[-99.2172616378818,29.17958809501733],[-99.21731325310755,29.17975240429626],[-99.21734500037277,29.17984579727878],[-99.21738070288477,29.17994437492585],[-99.21739073460827,29.1800256894885],[-99.21743223519032,29.18006888326131],[-99.21752299444648,29.18009469257985],[-99.21752311506283,29.1802253457579]]},"properties":{"Class":"1","Source":"2017 ranch infrastructure","name":"Road 8","name_src":"seq","layer":"Roads","Length_ft":"424"}},{"type":"Feature","geometry":{"type":"LineString","coordinates":[[-99.21723373093886,29.17765783957949],[-99.21723410359975,29.17783391224721],[-99.21721778894545,29.17815922561566],[-99.21720503964445,29.17856212482797],[-99.21722128092945,29.17915381623833]]},"properties":{"Class":"1","Source":"2017 ranch infrastructure","name":"Road 9","name_src":"seq","layer":"Roads","Length_ft":"546"}},{"type":"Feature","geometry":{"type":"LineString","coordinates":[[-99.21726017817282,29.17569413587089],[-99.21724684190498,29.17581949720149],[-99.21723373093886,29.17765783957949]]},"properties":{"Class":"1","Source":"2017 ranch infrastructure","name":"Road 10","name_src":"seq","layer":"Roads","Length_ft":"717"}},{"type":"Feature","geometry":{"type":"LineString","coordinates":[[-99.21674202199529,29.17202460418683],[-99.21676671651026,29.17212483590705],[-99.21682400770968,29.17220352730346],[-99.21689760642923,29.17227503120862],[-99.21697120422127,29.172346534172],[-99.21706109440932,29.17240368600196],[-99.21714286885783,29.1724823382795],[-99.21721658925394,29.17261113912581],[-99.21727397306613,29.17273280474117],[-99.21729076470459,29.1729548084067],[-99.21730757157817,29.17318397386626],[-99.21732419655059,29.17332719229307],[-99.21732457566904,29.17350624904623],[-99.21729303907497,29.17402914801558],[-99.2172702538774,29.17483136189191],[-99.21726345685366,29.17547597867544],[-99.21726017817282,29.17569413587089]]},"properties":{"Class":"1","Source":"2017 ranch infrastructure","name":"Road 11","name_src":"seq","layer":"Roads","Length_ft":"1398"}},{"type":"Feature","geometry":{"type":"LineString","coordinates":[[-99.21439807937698,29.16725830812043],[-99.21440647962301,29.16737289109771],[-99.21447198712009,29.16748022033996],[-99.21536479178155,29.16906164744963],[-99.21539764424493,29.16916186626465],[-99.21546318501666,29.16928351950952],[-99.21556183334924,29.16962715028028],[-99.21562731339971,29.16972015351848],[-99.21570911471457,29.16981313120663],[-99.21579919773295,29.16996339366548],[-99.21589741096756,29.17009931833129],[-99.21598767536429,29.17033552771219],[-99.21607783360632,29.17052160079692],[-99.21619261038704,29.17077209483768],[-99.21639759348128,29.1712301488398],[-99.21674202199529,29.17202460418683]]},"properties":{"Class":"1","Source":"2017 ranch infrastructure","name":"Road 12","name_src":"seq","layer":"Roads","Length_ft":"1901"}},{"type":"Feature","geometry":{"type":"LineString","coordinates":[[-99.21442945434731,29.1637419168461],[-99.21344394470279,29.16378251882067],[-99.2134104515145,29.16382383624278],[-99.21339712938341,29.16387690945643],[-99.21342412801945,29.16394170890171],[-99.21346454687061,29.16400059098623],[-99.21352508786252,29.16404765180943],[-99.2135991850505,29.1641536386067],[-99.21370020664152,29.16428905514683],[-99.21386857211563,29.16451278422885],[-99.21402355700398,29.16476011349815],[-99.21407760473738,29.16491329004715],[-99.21410467784452,29.16501345714406],[-99.21415884881075,29.16522557938042],[-99.21417260015637,29.16537882064343],[-99.21419975958207,29.16552025044387],[-99.2142271651246,29.16577957438573],[-99.21426810194703,29.16608603347157],[-99.21430237083698,29.16641608306966],[-99.21437070205491,29.16697597196491],[-99.21435751541983,29.16709388770807],[-99.21437358462906,29.16715902214603],[-99.21439807937698,29.16725830812043]]},"properties":{"Class":"1","Source":"2017 ranch infrastructure","name":"Road 13","name_src":"seq","layer":"Roads","Length_ft":"1656"}},{"type":"Feature","geometry":{"type":"LineString","coordinates":[[-99.22037595552021,29.16743775367668],[-99.22009206876348,29.16659527713896],[-99.21972062505259,29.16563504978491],[-99.21970692744836,29.16551128376335],[-99.21972006988301,29.16537568357682],[-99.21972645812711,29.16522240966413],[-99.21970608212885,29.16511633860878],[-99.21965220248026,29.16504569070014],[-99.2195715606994,29.16502224469688],[-99.2194573249273,29.16499295902408],[-99.21932296659034,29.1649754962836],[-99.219141608961,29.16496400476313],[-99.21903413997143,29.16495828741353],[-99.2189669414789,29.16494071299704],[-99.21889971889966,29.16491135048338],[-99.218832470195,29.16487019716902],[-99.21811853096386,29.16391052816275],[-99.21805117156418,29.16381632275159],[-99.21797715867113,29.16375160115713],[-99.21790996115143,29.16373402710776],[-99.21778901211444,29.16370475098281],[-99.21768818468607,29.16366365287004],[-99.2175538783616,29.16366976717669],[-99.21733226554987,29.1636760237784],[-99.21682858262515,29.16368273931613],[-99.21585483373478,29.16371379328278],[-99.2153645819038,29.16372048152732],[-99.2148474909017,29.16373900025196],[-99.21445796653899,29.16373962775463]]},"properties":{"Class":"1","Source":"2017 ranch infrastructure","name":"Road 14","name_src":"seq","layer":"Roads","Length_ft":"2803"}},{"type":"Feature","geometry":{"type":"LineString","coordinates":[[-99.21990650673614,29.17089283717702],[-99.21991947278057,29.17067471073582],[-99.22003223658552,29.17001431537935],[-99.2200651857015,29.16971952515267],[-99.2201248618714,29.1693598481018],[-99.22019771678286,29.16888225561789],[-99.22036999940855,29.16779144712887],[-99.22038971746983,29.16759099336046],[-99.22037595552021,29.16743775367668]]},"properties":{"Class":"1","Source":"2017 ranch infrastructure","name":"Road 15","name_src":"seq","layer":"Roads","Length_ft":"1271"}},{"type":"Feature","geometry":{"type":"LineString","coordinates":[[-99.21979988950712,29.17442395053655],[-99.2200405134749,29.17387534488779],[-99.22013414092936,29.17368655911804],[-99.2201874816948,29.1735037348],[-99.22028115914277,29.17333852772963],[-99.22040829380758,29.1731143175708],[-99.22053545222033,29.1729018971438],[-99.22070285910814,29.17266583104135],[-99.22091686086667,29.17223516226941],[-99.22099721774133,29.17212302949597],[-99.22109775006548,29.17202265219663],[-99.22121178983738,29.17195762119442],[-99.22145361353003,29.17189311139492],[-99.22156756011029,29.17186271453874],[-99.22163460981072,29.17180955029307],[-99.22164791598252,29.17175058136878],[-99.22160079914204,29.1717035019353],[-99.22152016337932,29.17168595205737],[-99.2213857832159,29.17166259647963],[-99.22125810712593,29.17163333468527],[-99.22113040468302,29.17159228381456],[-99.220928771852,29.17152777561257],[-99.2206128579979,29.17141629945903],[-99.22028356203718,29.17132842357692],[-99.21998113341402,29.17124050253094],[-99.21989366794548,29.17116991019681],[-99.21988676184036,29.17108150094949],[-99.21989233733737,29.17102823146493],[-99.21990650673614,29.17089283717702]]},"properties":{"Class":"1","Source":"2017 ranch infrastructure","name":"Road 16","name_src":"seq","layer":"Roads","Length_ft":"1892"}},{"type":"Feature","geometry":{"type":"LineString","coordinates":[[-99.2180748232106,29.1781109839783],[-99.21813503741113,29.17799888597001],[-99.21824175542353,29.1776450280182],[-99.21833522661198,29.17737961225659],[-99.2184086098299,29.17714370317556],[-99.21850221919861,29.17694312966344],[-99.21865606511658,29.17664224677391],[-99.21885678900613,29.17627644500682],[-99.2191378239334,29.17577493160496],[-99.21919135638433,29.17568052801595],[-99.21979988950712,29.17442395053655]]},"properties":{"Class":"1","Source":"2017 ranch infrastructure","name":"Road 17","name_src":"seq","layer":"Roads","Length_ft":"1456"}},{"type":"Feature","geometry":{"type":"LineString","coordinates":[[-99.21752299444648,29.18009469257985],[-99.21746075384732,29.17994524411142],[-99.21748064333269,29.17982142232744],[-99.21750055672649,29.17970939038942],[-99.21754712560474,29.17949710448239],[-99.21764720499294,29.17917862667229],[-99.21774727125367,29.17885425385177],[-99.21781399076767,29.17864193490515],[-99.2178875637936,29.17849444640971],[-99.21794086552248,29.17838024201888],[-99.2179811754125,29.17829387329123],[-99.2180748232106,29.1781109839783]]},"properties":{"Class":"1","Source":"2017 ranch infrastructure","name":"Road 18","name_src":"seq","layer":"Roads","Length_ft":"758"}},{"type":"Feature","geometry":{"type":"LineString","coordinates":[[-99.22382645415875,29.17888679856566],[-99.2238328525845,29.17869535862915],[-99.22379746566983,29.17809720418668],[-99.22379732218734,29.17803140083616],[-99.22376308338357,29.17795967226564],[-99.22371523801151,29.17789993147403],[-99.22366060190765,29.17785216610566],[-99.22358555540825,29.17782238147643],[-99.22347643872648,29.17779863551339],[-99.22336058540768,29.17781079378514],[-99.22313573250776,29.17785304596935],[-99.22289725868787,29.17790130212704],[-99.22182736819873,29.17804067697116],[-99.22169789358541,29.17805883803936],[-99.22155475935307,29.1780650585511],[-99.22146613222432,29.17805922339272],[-99.22135021284123,29.17804147036943],[-99.22127515397638,29.17800570198854],[-99.22115902844396,29.1778922340911],[-99.22093344047353,29.17759350087955],[-99.22073523586756,29.17734856147457],[-99.2206052990579,29.17715136585453],[-99.22009900971246,29.17627880973222],[-99.22003744398128,29.17617721476461],[-99.21995545584326,29.17608761842454],[-99.21979160603878,29.17596824560818],[-99.21945040409486,29.17578934363522],[-99.21919135638433,29.17568052801595]]},"properties":{"Class":"1","Source":"2017 ranch infrastructure","name":"Road 19","name_src":"seq","layer":"Roads","Length_ft":"2273"}},{"type":"Feature","geometry":{"type":"LineString","coordinates":[[-99.22387959785361,29.1813752803055],[-99.22392705441442,29.18125555747458],[-99.22393367468972,29.18116581470134],[-99.2239197935825,29.18105217739355],[-99.22391957170895,29.18095048117314],[-99.22391934983587,29.18084878495161],[-99.22386435976846,29.18063950257458],[-99.22386411185514,29.18052584235333],[-99.22385698167506,29.18038228313918],[-99.22384977425955,29.18020283102801],[-99.22385627710399,29.18005924800666],[-99.22384895228998,29.1798259574507],[-99.22384826079576,29.17950890474977],[-99.22382645415875,29.17888679856566]]},"properties":{"Class":"1","Source":"2017 ranch infrastructure","name":"Road 20","name_src":"seq","layer":"Roads","Length_ft":"913"}},{"type":"Feature","geometry":{"type":"LineString","coordinates":[[-99.22137078705933,29.18125982815255],[-99.22154813826326,29.18131337296866],[-99.22169128892023,29.1813131349169],[-99.22186848520056,29.18129489352664],[-99.22211387407043,29.18128850320584],[-99.22233196966874,29.18127019302771],[-99.22250923060666,29.18128186122609],[-99.22306834394698,29.18134673011468],[-99.2233478292827,29.18134626201478],[-99.22351832548802,29.18138186918886],[-99.22364793432429,29.18142352633519],[-99.22375017156578,29.18141737315675],[-99.22387959785361,29.1813752803055]]},"properties":{"Class":"1","Source":"2017 ranch infrastructure","name":"Road 21","name_src":"seq","layer":"Roads","Length_ft":"812"}},{"type":"Feature","geometry":{"type":"LineString","coordinates":[[-99.2175595680538,29.18063174145224],[-99.21756560420316,29.18057814833209],[-99.21759274348716,29.18051828292593],[-99.21763349143492,29.18044643034952],[-99.2177083604777,29.1803924694361],[-99.21778329290754,29.18036841802373],[-99.21798784323909,29.18039201257698],[-99.21916776314634,29.18068918374665],[-99.21939963275958,29.18073666018351],[-99.21969294159892,29.18082590863463],[-99.21988389863789,29.18086746829395],[-99.22004761426055,29.18092103760375],[-99.2201908028759,29.18093874760994],[-99.22041590784562,29.18101016153368],[-99.22077055607897,29.18109332458059],[-99.22137078705933,29.18125982815255]]},"properties":{"Class":"1","Source":"2017 ranch infrastructure","name":"Road 22","name_src":"seq","layer":"Roads","Length_ft":"1319"}},{"type":"Feature","geometry":{"type":"LineString","coordinates":[[-99.20928026749168,29.19301102806903],[-99.20929829641413,29.1933710717846],[-99.20929529524771,29.19344143584318],[-99.2093095099293,29.19347314402968],[-99.20932998862484,29.1934924253849],[-99.20937557860138,29.19348959444472],[-99.2094368335395,29.19345914736394],[-99.20956083778597,29.19335962283253],[-99.20976960990814,29.19319512321348]]},"properties":{"Class":"2","Source":"2017 ranch infrastructure","name":"Road 23","name_src":"seq","layer":"Roads","Length_ft":"359"}},{"type":"Feature","geometry":{"type":"LineString","coordinates":[[-99.20929670430061,29.19190268386509],[-99.20929958106086,29.19197907711188],[-99.20927797515397,29.19205789547097],[-99.20927822832395,29.19218204155069],[-99.20929493768026,29.19237062169465],[-99.20929802382437,29.19254967384471],[-99.20928026749168,29.19301102806903]]},"properties":{"Class":"2","Source":"2017 ranch infrastructure","name":"Road 24","name_src":"seq","layer":"Roads","Length_ft":"405"}},{"type":"Feature","geometry":{"type":"LineString","coordinates":[[-99.21048837703228,29.19188648271333],[-99.21024968277361,29.19224497256896],[-99.21005710722207,29.1925389303027],[-99.20982118358093,29.19292367737233],[-99.20978049790259,29.19298581374609],[-99.2097724336054,29.19303357514879],[-99.2097806735975,29.19307176150894],[-99.20979164536392,29.19311471780799],[-99.20979169905047,29.19314097919801],[-99.2097863058936,29.19316486159045],[-99.20976960990814,29.19319512321348]]},"properties":{"Class":"2","Source":"2017 ranch infrastructure","name":"Road 25","name_src":"seq","layer":"Roads","Length_ft":"539"}},{"type":"Feature","geometry":{"type":"LineString","coordinates":[[-99.20972127180183,29.19063190614983],[-99.20992011571536,29.19074380175694],[-99.2099883152773,29.19083202905382],[-99.2100619069041,29.19089637390751],[-99.21023362276983,29.19104651023326],[-99.21034810098075,29.19114660219484],[-99.21053069548613,29.19129433429694],[-99.21067784199194,29.19140392284798],[-99.21073237035506,29.19145874807773],[-99.21070256955976,29.19152086753399],[-99.21064846262327,29.19167136102483],[-99.21048837703228,29.19188648271333]]},"properties":{"Class":"2","Source":"2017 ranch infrastructure","name":"Road 26","name_src":"seq","layer":"Roads","Length_ft":"619"}},{"type":"Feature","geometry":{"type":"LineString","coordinates":[[-99.20928844819738,29.1905227645319],[-99.20928885230968,29.19072092059777],[-99.20927913326607,29.19129153022241],[-99.20927948867586,29.19146581153858],[-99.20925528849563,29.19160670811645],[-99.20926639132959,29.19171412416938],[-99.20929670430061,29.19190268386509]]},"properties":{"Class":"2","Source":"2017 ranch infrastructure","name":"Road 27","name_src":"seq","layer":"Roads","Length_ft":"505"}},{"type":"Feature","geometry":{"type":"LineString","coordinates":[[-99.20926998654178,29.18947471364863],[-99.20929201549778,29.18960359981034],[-99.20930326320006,29.18978263919617],[-99.20928214078258,29.19009781287081],[-99.20927427505815,29.19024345806396],[-99.20927742916415,29.19030561659542],[-99.20928844819738,29.1905227645319]]},"properties":{"Class":"2","Source":"2017 ranch infrastructure","name":"Road 28","name_src":"seq","layer":"Roads","Length_ft":"383"}},{"type":"Feature","geometry":{"type":"LineString","coordinates":[[-99.20927742916415,29.19030561659542],[-99.20931527646665,29.19033650355448],[-99.20938876989129,29.19035309931052],[-99.2094404640342,29.19035301808751],[-99.20947862289731,29.1903863823153],[-99.20972127180183,29.19063190614983]]},"properties":{"Class":"2","Source":"2017 ranch infrastructure","name":"Road 29","name_src":"seq","layer":"Roads","Length_ft":"193"}},{"type":"Feature","geometry":{"type":"LineString","coordinates":[[-99.21052318195177,29.19028446479692],[-99.20957638413212,29.19029550632352],[-99.20950842410221,29.19032426222294],[-99.20949757074857,29.19033860381004],[-99.2094404640342,29.19035301808751]]},"properties":{"Class":"2","Source":"2017 ranch infrastructure","name":"Road 30","name_src":"seq","layer":"Roads","Length_ft":"351"}},{"type":"Feature","geometry":{"type":"LineString","coordinates":[[-99.21339137196327,29.1913533497284],[-99.2134693396492,29.19123086950939],[-99.21346869405777,29.19092050519813],[-99.21347825758853,29.19061310853833],[-99.21348753549063,29.19016843597547],[-99.21308624576184,29.19017803109368],[-99.21267476545665,29.19019360929175],[-99.2121476713351,29.19021832323799],[-99.21151856872274,29.19025215087152],[-99.21052318195177,29.19028446479692]]},"properties":{"Class":"2","Source":"2017 ranch infrastructure","name":"Road 31","name_src":"seq","layer":"Roads","Length_ft":"1384"}},{"type":"Feature","geometry":{"type":"LineString","coordinates":[[-99.2129677882652,29.19209412922143],[-99.21313394101664,29.19185512094185],[-99.21323549286964,29.19162516875796],[-99.21339137196327,29.1913533497284]]},"properties":{"Class":"2","Source":"2017 ranch infrastructure","name":"Road 32","name_src":"seq","layer":"Roads","Length_ft":"303"}},{"type":"Feature","geometry":{"type":"LineString","coordinates":[[-99.2122168743456,29.19243553509186],[-99.21204331283468,29.19238209458558],[-99.2118731213818,29.19231372662782],[-99.21176411678084,29.19223034028557],[-99.21144735218516,29.19200105345381],[-99.2110556126846,29.19169727706999],[-99.21073237035506,29.19145874807773]]},"properties":{"Class":"2","Source":"2017 ranch infrastructure","name":"Road 33","name_src":"seq","layer":"Roads","Length_ft":"597"}},{"type":"Feature","geometry":{"type":"LineString","coordinates":[[-99.21020996847997,29.18647164205113],[-99.21033267776662,29.18660872575024],[-99.21051673824493,29.18681136617302],[-99.2107144505036,29.18703785957713],[-99.21095309663448,29.18732397359903],[-99.21112353090571,29.18751469778042],[-99.21140990153805,29.18785445213142],[-99.21147799222798,29.18789015498281],[-99.2115665979648,29.18797954290297],[-99.2116348118759,29.18807493207614],[-99.21176432813391,29.18821200272868],[-99.21200284429536,29.18843246042776],[-99.21218067921099,29.18865268406127],[-99.21224833542333,29.18873646709903],[-99.2123574725608,29.18888550748065],[-99.21258923883238,29.18912984878864],[-99.21274607577568,29.1893205925563],[-99.21301877804588,29.18962455434893],[-99.2133936096481,29.18997609992413],[-99.21348753549063,29.19016843597547]]},"properties":{"Class":"2","Source":"2017 ranch infrastructure","name":"Road 34","name_src":"seq","layer":"Roads","Length_ft":"1712"}},{"type":"Feature","geometry":{"type":"LineString","coordinates":[[-99.21020889267538,29.18594641026074],[-99.21010012834363,29.1859764246184],[-99.21001178106839,29.18601237474538],[-99.2092982017342,29.18629998883669],[-99.20923033188258,29.18637171806722],[-99.2092306847587,29.18654480569137],[-99.2092309524588,29.18667611363542],[-99.2092245398082,29.18686711866807],[-99.20922509953053,29.18714167146664],[-99.20925313424885,29.18754749037761],[-99.20925422951781,29.18808465900758],[-99.2092547649888,29.1883472757537],[-99.20926239366963,29.18875312574666],[-99.20927684894227,29.18917090286199],[-99.20926998654178,29.18947471364863]]},"properties":{"Class":"2","Source":"2017 ranch infrastructure","name":"Road 35","name_src":"seq","layer":"Roads","Length_ft":"1484"}},{"type":"Feature","geometry":{"type":"LineString","coordinates":[[-99.21010012834363,29.1859764246184],[-99.2100391711835,29.1861018601416],[-99.21003256463553,29.18619736804331],[-99.21006684130428,29.18632862239233],[-99.21020996847997,29.18647164205113]]},"properties":{"Class":"2","Source":"2017 ranch infrastructure","name":"Road 36","name_src":"seq","layer":"Roads","Length_ft":"203"}},{"type":"Feature","geometry":{"type":"LineString","coordinates":[[-99.21222212903682,29.18593128271623],[-99.21020889267538,29.18594641026074]]},"properties":{"Class":"2","Source":"2017 ranch infrastructure","name":"Road 37","name_src":"seq","layer":"Roads","Length_ft":"641"}},{"type":"Feature","geometry":{"type":"LineString","coordinates":[[-99.21218067921099,29.18865268406127],[-99.2125122436621,29.18807950392806],[-99.21273599489807,29.18773893867497],[-99.21291231897564,29.18748797735613],[-99.21293924039333,29.18735065705449],[-99.21291174938713,29.18721342458314],[-99.21222306703864,29.18638489206009],[-99.2121276230989,29.18627760955435],[-99.21207976553178,29.18615831430334],[-99.21208635681066,29.18605683829161],[-99.21213383291918,29.18599110809242],[-99.21222212903682,29.18593128271623]]},"properties":{"Class":"2","Source":"2017 ranch infrastructure","name":"Road 38","name_src":"seq","layer":"Roads","Length_ft":"1157"}},{"type":"Feature","geometry":{"type":"LineString","coordinates":[[-99.21493043328508,29.18669052916212],[-99.2147810395713,29.18665534802318],[-99.21473329011043,29.18658977122859],[-99.21473312776342,29.18651217988976],[-99.2147465194746,29.18641069278902],[-99.21476661117975,29.18626144614142],[-99.21473906806669,29.18610033928632],[-99.21469812086899,29.18603475061314],[-99.21461633999185,29.18595729072685],[-99.21450061382065,29.18590972918569],[-99.21435091736613,29.18588012717538],[-99.2141808659458,29.18587443163361],[-99.21375236757287,29.18587511956495],[-99.21222212903682,29.18593128271623]]},"properties":{"Class":"2","Source":"2017 ranch infrastructure","name":"Road 39","name_src":"seq","layer":"Roads","Length_ft":"1091"}},{"type":"Feature","geometry":{"type":"LineString","coordinates":[[-99.22104793802905,29.17945964564354],[-99.22079341733172,29.17957571244623],[-99.22046427254232,29.17971503265059],[-99.22013945217338,29.1798235058419],[-99.22002092735679,29.17985839539803],[-99.21974421095346,29.17986656149964],[-99.21944996473354,29.17989402973791],[-99.21904592048814,29.17992938828133],[-99.21872536002402,29.17997617291385],[-99.21840917535677,29.18001524006593],[-99.21830811312424,29.17999998658124],[-99.21804014843539,29.1799927157321],[-99.21775902266103,29.1799931753874],[-99.21760972382287,29.18001654786964],[-99.21752299444648,29.18009469257985]]},"properties":{"Class":"2","Source":"2017 ranch infrastructure","name":"Road 40","name_src":"seq","layer":"Roads","Length_ft":"1171"}},{"type":"Feature","geometry":{"type":"LineString","coordinates":[[-99.21752299444648,29.18009469257985],[-99.2176490856379,29.17993553164411],[-99.21780249052544,29.17977723189192],[-99.2180962525305,29.17952233130848],[-99.21835047271092,29.17926364009257],[-99.21842501537111,29.17920183982867],[-99.21848192964468,29.17911308504087],[-99.2184465674452,29.1790090615381],[-99.21838924308311,29.17890507491953],[-99.21823950334957,29.17872028678889],[-99.21794086552248,29.17838024201888]]},"properties":{"Class":"2","Source":"2017 ranch infrastructure","name":"Road 41","name_src":"seq","layer":"Roads","Length_ft":"793"}},{"type":"Feature","geometry":{"type":"LineString","coordinates":[[-99.22080272633733,29.17956789725162],[-99.22118324224526,29.17940611488845],[-99.22135991753157,29.17933419881356],[-99.22146843868049,29.17919674108646],[-99.22152888823604,29.17884449498841],[-99.22158967343833,29.17864743073491],[-99.22158926108858,29.17845643715783],[-99.22155493366166,29.17830727982057],[-99.2215342082209,29.1781580998617],[-99.22160208981468,29.17809830123491],[-99.22169789358541,29.17805883803936]]},"properties":{"Class":"2","Source":"2017 ranch infrastructure","name":"Road 42","name_src":"seq","layer":"Roads","Length_ft":"707"}},{"type":"Feature","geometry":{"type":"LineString","coordinates":[[-99.21515628042914,29.17221132230793],[-99.2151938092523,29.17235401999621],[-99.215211489762,29.17243087031281],[-99.21523562111386,29.1761552220461],[-99.21524114838645,29.17879093523023],[-99.21618906648413,29.17936238356278],[-99.21739073460827,29.1800256894885]]},"properties":{"Class":"2","Source":"2017 ranch infrastructure","name":"Road 43","name_src":"seq","layer":"Roads","Length_ft":"3222"}},{"type":"Feature","geometry":{"type":"LineString","coordinates":[[-99.21515628042914,29.17221132230793],[-99.21648265962882,29.17223504136155],[-99.21662783801452,29.1721941561811],[-99.21676671651026,29.17212483590705]]},"properties":{"Class":"2","Source":"2017 ranch infrastructure","name":"Road 44","name_src":"seq","layer":"Roads","Length_ft":"522"}},{"type":"Feature","geometry":{"type":"LineString","coordinates":[[-99.21379392491403,29.17155993720303],[-99.21414275841742,29.171827582391],[-99.21423854087631,29.1719128343654],[-99.21439074511088,29.17203695288383],[-99.21454114074882,29.17211312680889],[-99.21468807935274,29.17216832957132],[-99.21482980503694,29.17218008777191],[-99.21515628042914,29.17221132230793]]},"properties":{"Class":"2","Source":"2017 ranch infrastructure","name":"Road 45","name_src":"seq","layer":"Roads","Length_ft":"514"}},{"type":"Feature","geometry":{"type":"LineString","coordinates":[[-99.2130187469292,29.17066876736234],[-99.21309936355598,29.17087330592443],[-99.21318326916342,29.17099453838209],[-99.21325002735367,29.17107983750155],[-99.21333388971068,29.17118009336779],[-99.21350834706386,29.17133414379165],[-99.21379392491403,29.17155993720303]]},"properties":{"Class":"2","Source":"2017 ranch infrastructure","name":"Road 46","name_src":"seq","layer":"Roads","Length_ft":"415"}},{"type":"Feature","geometry":{"type":"LineString","coordinates":[[-99.21277572933762,29.16998786795997],[-99.21278076506572,29.17010692293335],[-99.21282906802485,29.17031135535477],[-99.2130196903934,29.17066959148999]]},"properties":{"Class":"2","Source":"2017 ranch infrastructure","name":"Road 47","name_src":"seq","layer":"Roads","Length_ft":"264"}},{"type":"Feature","geometry":{"type":"LineString","coordinates":[[-99.21435190516665,29.16710076981573],[-99.21421529802602,29.16726383201778],[-99.21397539997659,29.16744218671827],[-99.21360086432232,29.16768931986171],[-99.21327415341358,29.16791116147344],[-99.2131199911081,29.16822237425379],[-99.21289280325641,29.1687214035388],[-99.21276095024766,29.16901717287034],[-99.21276310040611,29.16928471158865],[-99.21277572933762,29.16998786795997]]},"properties":{"Class":"2","Source":"2017 ranch infrastructure","name":"Road 48","name_src":"seq","layer":"Roads","Length_ft":"1245"}},{"type":"Feature","geometry":{"type":"LineString","coordinates":[[-99.21570441757467,29.16623205180901],[-99.21570463240747,29.16633428598313],[-99.21567922607443,29.16656151603397],[-99.21561732721229,29.1668740008605],[-99.21549874810661,29.1669025909608],[-99.21466871540214,29.16711218686602],[-99.21437358462906,29.16715902214603]]},"properties":{"Class":"2","Source":"2017 ranch infrastructure","name":"Road 49","name_src":"seq","layer":"Roads","Length_ft":"646"}},{"type":"Feature","geometry":{"type":"LineString","coordinates":[[-99.21562286690272,29.16535747673795],[-99.21533044666543,29.16535198066727],[-99.21490205896023,29.16536460924268],[-99.21443969611653,29.16538922901081],[-99.21417260015637,29.16537882064343]]},"properties":{"Class":"2","Source":"2017 ranch infrastructure","name":"Road 50","name_src":"seq","layer":"Roads","Length_ft":"462"}},{"type":"Feature","geometry":{"type":"LineString","coordinates":[[-99.21817843783955,29.16697975443472],[-99.21828781073856,29.16724696774868],[-99.21842968454203,29.16744728003748],[-99.21868016043393,29.16755191630545],[-99.21909419135045,29.1678186286212],[-99.2194540876265,29.16820957471298],[-99.21963983452535,29.16857215876569],[-99.21965085785796,29.16863898824622],[-99.21966312884798,29.16928834929869],[-99.21934348462808,29.17005614255158],[-99.21912668399726,29.17043848806962],[-99.21912714270076,29.17065335658989],[-99.21931796636964,29.17084403706617],[-99.2197430346734,29.17103581734072]]},"properties":{"Class":"2","Source":"2017 ranch infrastructure","name":"Road 51","name_src":"seq","layer":"Roads","Length_ft":"1808"}},{"type":"Feature","geometry":{"type":"LineString","coordinates":[[-99.2197430346734,29.17103581734072],[-99.21977456308485,29.17110020916147],[-99.21982327273423,29.17116040835992],[-99.21997923550532,29.17123954467798]]},"properties":{"Class":"2","Source":"2017 ranch infrastructure","name":"Road 52","name_src":"seq","layer":"Roads","Length_ft":"110"}},{"type":"Feature","geometry":{"type":"LineString","coordinates":[[-99.21739774312604,29.1718109461044],[-99.21731390027898,29.17196968885431],[-99.21727785818476,29.17208624799643],[-99.21727810463496,29.17220267216715],[-99.21730368752196,29.17243233225108],[-99.21721658925394,29.17261113912581]]},"properties":{"Class":"2","Source":"2017 ranch infrastructure","name":"Road 53","name_src":"seq","layer":"Roads","Length_ft":"305"}},{"type":"Feature","geometry":{"type":"LineString","coordinates":[[-99.21815862257573,29.17126849515846],[-99.21814077308285,29.17131722787267],[-99.21808878510043,29.17143047741623],[-99.2180269706816,29.17152798555261],[-99.21801395310246,29.17154662922522],[-99.21784108791755,29.17161423689233],[-99.21761770855494,29.17172060449225],[-99.21739755964622,29.17181120808067],[-99.21737962475507,29.17181983207225],[-99.21729485625444,29.17186867381659],[-99.21721333378075,29.17190891548206],[-99.21707962691221,29.17197072940208],[-99.21698505616415,29.17201529000041],[-99.21690683104937,29.17207128266806],[-99.2168399819769,29.17210433839212],[-99.21676671651026,29.17212483590705]]},"properties":{"Class":"2","Source":"2017 ranch infrastructure","name":"Road 54","name_src":"seq","layer":"Roads","Length_ft":"563"}},{"type":"Feature","geometry":{"type":"LineString","coordinates":[[-99.21977456308485,29.17110020916147],[-99.21923036930056,29.17104985839486],[-99.21849718180515,29.17109887098434],[-99.21832546075319,29.17113592888063],[-99.21823758255374,29.17119123613578],[-99.21815862257573,29.17126849515846]]},"properties":{"Class":"2","Source":"2017 ranch infrastructure","name":"Road 55","name_src":"seq","layer":"Roads","Length_ft":"537"}},{"type":"Feature","geometry":{"type":"LineString","coordinates":[[-99.22272798422362,29.17532675107599],[-99.22305471098045,29.17545751314181],[-99.22342252903329,29.17571951406205],[-99.22381744906713,29.17593372054434],[-99.2238319617775,29.17635149572886],[-99.22385997216739,29.17672150032178],[-99.22387490176119,29.17733026996624],[-99.22382124956006,29.17767653774593],[-99.22371523801151,29.17789993147403]]},"properties":{"Class":"2","Source":"2017 ranch infrastructure","name":"Road 56","name_src":"seq","layer":"Roads","Length_ft":"1139"}},{"type":"Feature","geometry":{"type":"LineString","coordinates":[[-99.22160079914204,29.1717035019353],[-99.22183641752673,29.17187840097302],[-99.22213616150484,29.17211664485851],[-99.22240867877295,29.17234299562872],[-99.22262673985344,29.17254556376961],[-99.22293985544046,29.17267634887738],[-99.22336201708637,29.1729143851348],[-99.22353896564047,29.17297377422286],[-99.22377037127374,29.17305694560025],[-99.22382506347657,29.173188162325],[-99.22382587042574,29.17355821273049],[-99.22382685959646,29.17401182256599],[-99.22381744906713,29.17593372054434]]},"properties":{"Class":"2","Source":"2017 ranch infrastructure","name":"Road 57","name_src":"seq","layer":"Roads","Length_ft":"1912"}},{"type":"Feature","geometry":{"type":"LineString","coordinates":[[-99.22290785173408,29.17344855595775],[-99.22306668699444,29.17330494085436],[-99.22313768478728,29.17321293188565],[-99.22326308744753,29.17310245299558],[-99.22332153607533,29.17301781626786],[-99.22336201708637,29.1729143851348]]},"properties":{"Class":"2","Source":"2017 ranch infrastructure","name":"Road 58","name_src":"seq","layer":"Roads","Length_ft":"246"}},{"type":"Feature","geometry":{"type":"LineString","coordinates":[[-99.21991002335005,29.17102837372268],[-99.22385715789142,29.1709498510307],[-99.22651965065792,29.1709036223344],[-99.22691586842471,29.17090294821964],[-99.2271532606803,29.1707495358093],[-99.22716873962611,29.17058259288336],[-99.22672844435472,29.16497770103334],[-99.22662942666118,29.16319741713735],[-99.22653391170749,29.16300284300242],[-99.22637525295539,29.16291965386507],[-99.2226619064479,29.16293399849438],[-99.21998874733846,29.16294426057658],[-99.21981776158935,29.16450243856066],[-99.21980212268426,29.16459983261292],[-99.21975526432166,29.16491983544569],[-99.21965220248026,29.16504569070014]]},"properties":{"Class":"2","Source":"2017 ranch infrastructure","name":"Road 59","name_src":"seq","layer":"Roads","Length_ft":"8039"}},{"type":"Feature","geometry":{"type":"LineString","coordinates":[[-99.22266339686166,29.16293530890136],[-99.22224235119485,29.16316216588351],[-99.22166185208012,29.16350181167088],[-99.22072522599848,29.16404353762234],[-99.21981776158935,29.16450243856066]]},"properties":{"Class":"2","Source":"2017 ranch infrastructure","name":"Road 60","name_src":"seq","layer":"Roads","Length_ft":"1072"}},{"type":"Feature","geometry":{"type":"LineString","coordinates":[[-99.22672844435472,29.16497770103334],[-99.22608262062447,29.16499437718533],[-99.22507624709516,29.16501995488368],[-99.22382509436808,29.16505787426733],[-99.22253311231498,29.16508391220428],[-99.22126833095149,29.16510989334915],[-99.22032980422057,29.16506369968213],[-99.2195715606994,29.16502224469688]]},"properties":{"Class":"2","Source":"2017 ranch infrastructure","name":"Road 61","name_src":"seq","layer":"Roads","Length_ft":"2282"}},{"type":"Feature","geometry":{"type":"LineString","coordinates":[[-99.22384638037448,29.17093487955635],[-99.22382506347657,29.173188162325]]},"properties":{"Class":"2","Source":"2017 ranch infrastructure","name":"Road 62","name_src":"seq","layer":"Roads","Length_ft":"822"}},{"type":"Feature","geometry":{"type":"LineString","coordinates":[[-99.20937879232882,29.16855797138071],[-99.2093913117816,29.16891496482397],[-99.20939162842518,29.16907018749464],[-99.20940539251022,29.17003772362046],[-99.20945282931874,29.1701721753766],[-99.21073976889808,29.17102904851682],[-99.21162993506397,29.17101211492083],[-99.21306253842023,29.17102535489238],[-99.21318040180348,29.17100446954834]]},"properties":{"Class":"2","Source":"2017 ranch infrastructure","name":"Road 63","name_src":"seq","layer":"Roads","Length_ft":"1885"}},{"type":"Feature","geometry":{"type":"LineString","coordinates":[[-99.21344394470279,29.16378251882067],[-99.21307644637679,29.16377734920069],[-99.21276633214549,29.16376352018186],[-99.21257034163706,29.16369221016155],[-99.21227639979003,29.16360673137006],[-99.21186804002953,29.16343548560822],[-99.21167205077144,29.16336417426434],[-99.21145968266144,29.16326423949276],[-99.21128018997587,29.1632788487915],[-99.2111496291276,29.16327905575031],[-99.21093743831292,29.16326506726554],[-99.21061097642615,29.16323693454455],[-99.21041522331818,29.16328021751147],[-99.21020326623452,29.16338082401935],[-99.20987701021906,29.16345296113844],[-99.20928965856378,29.16353983238175],[-99.20937879232882,29.16855797138071]]},"properties":{"Class":"2","Source":"2017 ranch infrastructure","name":"Road 64","name_src":"seq","layer":"Roads","Length_ft":"3212"}},{"type":"Feature","geometry":{"type":"LineString","coordinates":[[-99.21523562111386,29.1761552220461],[-99.21559578740519,29.17605741969407],[-99.21631187077011,29.17594045374616],[-99.21813965167851,29.17559005685753],[-99.21861070625962,29.17549919953583],[-99.2187055504315,29.17550699076871],[-99.21919135638433,29.17568052801595]]},"properties":{"Class":"2","Source":"2017 ranch infrastructure","name":"Road 65","name_src":"seq","layer":"Roads","Length_ft":"1299"}},{"type":"Feature","geometry":{"type":"LineString","coordinates":[[-99.2214714154647,29.17265498307302],[-99.22162508831781,29.17262474392031],[-99.2217103525739,29.1725571390693],[-99.2216930931158,29.1724747124819],[-99.22145361353003,29.17189311139492]]},"properties":{"Class":"2","Source":"2017 ranch infrastructure","name":"Road 66","name_src":"seq","layer":"Roads","Length_ft":"343"}}]}