{"type":"FeatureCollection","features":[{"type":"Feature","geometry":{"type":"Point","coordinates":[-99.21483753756533,29.18800771308116]},"properties":{"Notes":"Yancey Water Transfer Point","CreationDa":"7/26/2022","EditDate":"7/26/2022","Source":"Feb 2023 survey","System":"Yancey","System_Source":"Nearest pipe (unconfirmed)","System_Ambiguous":"0.69","name":"Yancey Water Transfer Point","name_src":"field","layer":"Transfer Points","photos":["yancey-transfer.jpg"]}},{"type":"Feature","geometry":{"type":"Point","coordinates":[-99.21787401170025,29.18327469484016]},"properties":{"Notes":"Irrigation Water Transfer Point","Source":"Feb 2023 survey","System":"Irrigation","System_Source":"Nearest pipe (unconfirmed)","System_Ambiguous":"1.56","name":"Irrigation Water Transfer Point","name_src":"field","layer":"Transfer Points"}}]}