{"type":"FeatureCollection","features":[{"type":"Feature","geometry":{"type":"Point","coordinates":[-99.21498287043335,29.19277059308583]},"properties":{"CreationDa":"7/26/2022","EditDate":"7/26/2022","Source":"Feb 2023 survey","System":"Ranch Water","System_Source":"Nearest pipe","name":"Valve 1","name_src":"seq","layer":"Valves","photos":["misc-valve.jpg"]}},{"type":"Feature","geometry":{"type":"Point","coordinates":[-99.21786787069794,29.18329155242471]},"properties":{"CreationDa":"7/26/2022","EditDate":"7/26/2022","Source":"Feb 2023 survey","System":"Yancey","System_Source":"Confirmed by ranch","name":"Valve 2 (Yancey)","name_src":"seq","layer":"Valves"}},{"type":"Feature","geometry":{"type":"Point","coordinates":[-99.21787401170025,29.18327469484016]},"properties":{"CreationDa":"7/26/2022","EditDate":"7/26/2022","Source":"Feb 2023 survey","System":"Irrigation","System_Source":"Confirmed by ranch","name":"Valve 3 (Irrigation)","name_src":"seq","layer":"Valves"}},{"type":"Feature","geometry":{"type":"Point","coordinates":[-99.21685387587716,29.17579462290762]},"properties":{"CreationDa":"7/26/2022","EditDate":"7/26/2022","Source":"Feb 2023 survey","System":"Ranch Water","System_Source":"Confirmed by ranch","name":"Valve 4 (Ranch Water)","name_src":"seq","layer":"Valves","photos":["ranch-valve.jpg"]}},{"type":"Feature","geometry":{"type":"Point","coordinates":[-99.2231658318672,29.17789052202326]},"properties":{"Notes":"Yancey and Ranch Main Water valves","CreationDa":"7/26/2022","EditDate":"7/26/2022","Source":"Feb 2023 survey","Name":"Yancey Main Water Valve","System":"Yancey","System_Source":"Confirmed by ranch","name":"Yancey Main Water Valve","name_src":"field","layer":"Valves","photos":["y-rw-mains.jpg"]}},{"type":"Feature","geometry":{"type":"Point","coordinates":[-99.22316753327637,29.17788212029818]},"properties":{"CreationDa":"7/26/2022","EditDate":"7/26/2022","Source":"Feb 2023 survey","System":"Ranch Water","System_Source":"Confirmed by ranch","name":"Valve 5 (Ranch Water)","name_src":"seq","layer":"Valves"}},{"type":"Feature","geometry":{"type":"Point","coordinates":[-99.21820859934606,29.18834571062673]},"properties":{"Notes":"Upstream Curoff","CreationDa":"7/26/2022","EditDate":"7/26/2022","Source":"Feb 2023 survey","System":"Irrigation","System_Source":"Nearest pipe","name":"Upstream Curoff","name_src":"field","layer":"Valves"}},{"type":"Feature","geometry":{"type":"Point","coordinates":[-99.21755615295523,29.1873420466105]},"properties":{"CreationDa":"7/26/2022","EditDate":"7/26/2022","Source":"Feb 2023 survey","System":"Irrigation","System_Source":"Confirmed by ranch","name":"Valve 6 (Irrigation)","name_src":"seq","layer":"Valves"}},{"type":"Feature","geometry":{"type":"Point","coordinates":[-99.21756392124601,29.187337908259135]},"properties":{"CreationDa":"7/26/2022","EditDate":"7/26/2022","Source":"Feb 2023 survey","System":"Ranch Water","System_Source":"Confirmed by ranch","Position_Source":"Moved onto the line by the ranch","name":"Valve 7 (Ranch Water)","name_src":"seq","layer":"Valves"}},{"type":"Feature","geometry":{"type":"Point","coordinates":[-99.21486205601487,29.18971958180861]},"properties":{"CreationDa":"7/26/2022","EditDate":"7/26/2022","Source":"Feb 2023 survey","System":"Yancey","System_Source":"Confirmed by ranch","name":"Valve 8 (Yancey)","name_src":"seq","layer":"Valves"}},{"type":"Feature","geometry":{"type":"Point","coordinates":[-99.21486925887345,29.18972526545338]},"properties":{"CreationDa":"7/26/2022","EditDate":"7/26/2022","Source":"Feb 2023 survey","System":"Ranch Water","System_Source":"Confirmed by ranch","name":"Valve 9 (Ranch Water)","name_src":"seq","layer":"Valves"}},{"type":"Feature","geometry":{"type":"Point","coordinates":[-99.21821720990182,29.18832979030099]},"properties":{"Notes":"Siphon Pump","Source":"Feb 2023 survey","System":"Irrigation","System_Source":"Nearest pipe","name":"Siphon Pump","name_src":"field","layer":"Valves"}},{"type":"Feature","geometry":{"type":"Point","coordinates":[-99.21799681343299,29.18836973371998]},"properties":{"Notes":"Water Irrigation Intake","Source":"Feb 2023 survey","System":"Irrigation","System_Source":"Nearest pipe","name":"Water Irrigation Intake","name_src":"field","layer":"Valves","photos":["water-irrigation-intake.jpg"]}},{"type":"Feature","geometry":{"type":"Point","coordinates":[-99.21711554727464,29.16370243069052]},"properties":{"Notes":"End of Ranch Line","Source":"Feb 2023 survey","name":"End of Ranch Line","name_src":"field","layer":"Valves"}},{"type":"Feature","geometry":{"type":"Point","coordinates":[-99.21696988258815,29.17803702489027]},"properties":{"Source":"2022 survey (post-review)","System":"Ranch Water","System_Source":"Confirmed by ranch","name":"Untitled Placemark","name_src":"field","layer":"Valves"}},{"type":"Feature","geometry":{"type":"Point","coordinates":[-99.22316868402393,29.17787890086838]},"properties":{"Notes":"Yancey and Ranch Main Water valves","CreationDa":"7/26/2022","EditDate":"7/26/2022","Source":"Feb 2023 survey","Name":"Ranch Water Main Valve","System":"Ranch Water","System_Source":"Confirmed by ranch","name":"Ranch Water Main Valve","name_src":"field","layer":"Valves","photos":["y-rw-mains.jpg"]}}]}