{"type":"FeatureCollection","features":[{"type":"Feature","geometry":{"type":"Point","coordinates":[-99.21635896637943,29.18670680979542]},"properties":{"Notes":"Los Amigos P&A Water Well","CreationDa":"7/26/2022","EditDate":"7/26/2022","Source":"Feb 2023 survey","name":"Los Amigos P&A Water Well","name_src":"field","layer":"Water Wells"}},{"type":"Feature","geometry":{"type":"Point","coordinates":[-99.21543875645689,29.18691209693936]},"properties":{"Notes":"Los Amigos Water Well","CreationDa":"7/26/2022","EditDate":"7/26/2022","Source":"Feb 2023 survey","name":"Los Amigos Water Well","name_src":"field","layer":"Water Wells","photos":["water-well-active.jpg"]}}]}