{"type":"FeatureCollection","features":[{"type":"Feature","geometry":{"type":"LineString","coordinates":[[-99.21563705999074,29.19225911180095],[-99.21570219262223,29.19232817503717],[-99.21659803861925,29.1930356149086],[-99.21660435647063,29.19302430028991]]},"properties":{"CreationDa":"7/26/2022","EditDate":"7/26/2022","Source":"Feb 2023 survey","name":"Yancey Water Line 1","name_src":"seq","layer":"Yancey Water Line","System":"Yancey","Length_ft":"422"}},{"type":"Feature","geometry":{"type":"LineString","coordinates":[[-99.21650069444435,29.16371645944842],[-99.21651124772593,29.16371637225094],[-99.21651129999037,29.16378756008183]]},"properties":{"CreationDa":"7/26/2022","EditDate":"7/26/2022","Source":"Feb 2023 survey","name":"Yancey Water Line 2","name_src":"seq","layer":"Yancey Water Line","System":"Yancey","Length_ft":"29"}},{"type":"Feature","geometry":{"type":"LineString","coordinates":[[-99.2231658318672,29.17789052202326],[-99.22168887936924,29.17810165121934],[-99.22157824016392,29.17803428224087],[-99.2214870449929,29.17802023180244],[-99.22131001938976,29.17698512316612],[-99.22116518042324,29.17668536157224],[-99.22015130496266,29.17593127005086],[-99.21984553371126,29.17547225486861],[-99.21942174449285,29.17540199698149]]},"properties":{"CreationDa":"7/26/2022","EditDate":"7/26/2022","Source":"Feb 2023 survey","name":"Yancey Water Line 3","name_src":"seq","layer":"Yancey Water Line","System":"Yancey","Length_ft":"1805"}},{"type":"Feature","geometry":{"type":"LineString","coordinates":[[-99.21786787069794,29.18329155242471],[-99.22214254026584,29.18196847989846]]},"properties":{"CreationDa":"7/26/2022","EditDate":"7/26/2022","Source":"Feb 2023 survey","name":"Yancey Water Line 4","name_src":"seq","layer":"Yancey Water Line","System":"Yancey","Length_ft":"1445"}},{"type":"Feature","geometry":{"type":"LineString","coordinates":[[-99.2176962852557,29.18734684880364],[-99.21756619971335,29.18733326294244],[-99.21756661293838,29.18731852990607]]},"properties":{"CreationDa":"7/26/2022","EditDate":"7/26/2022","Source":"Feb 2023 survey","name":"Yancey Water Line 5","name_src":"seq","layer":"Yancey Water Line","System":"Yancey","Length_ft":"47"}},{"type":"Feature","geometry":{"type":"LineString","coordinates":[[-99.21749072036685,29.18659875075227],[-99.21751384487274,29.18686379757704],[-99.21752858101584,29.18705065337292],[-99.21754997864447,29.1873186255822],[-99.21756661293838,29.18731852990607]]},"properties":{"Notes":"Possible Alternate","CreationDa":"7/26/2022","EditDate":"7/26/2022","Source":"Feb 2023 survey","name":"Possible Alternate","name_src":"field","layer":"Yancey Water Line","System":"Yancey","Length_ft":"269"}},{"type":"Feature","geometry":{"type":"LineString","coordinates":[[-99.21749166299985,29.18660804528156],[-99.21780535542081,29.1866020366525],[-99.21780570567503,29.1866241976639]]},"properties":{"CreationDa":"7/26/2022","EditDate":"7/26/2022","Source":"Feb 2023 survey","name":"Yancey Water Line 6","name_src":"seq","layer":"Yancey Water Line","System":"Yancey","Length_ft":"108"}},{"type":"Feature","geometry":{"type":"LineString","coordinates":[[-99.21484946347663,29.18800681528661],[-99.21568595934833,29.18794380529258],[-99.21578505699891,29.18796330648716]]},"properties":{"CreationDa":"7/26/2022","EditDate":"7/26/2022","Source":"Feb 2023 survey","name":"Yancey Water Line 7","name_src":"seq","layer":"Yancey Water Line","System":"Yancey","Length_ft":"300"}},{"type":"Feature","geometry":{"type":"LineString","coordinates":[[-99.21768115622194,29.18688614030494],[-99.21774835593347,29.18688608368478],[-99.21774856390321,29.18710943385446],[-99.21766622981517,29.18748334043494],[-99.21750008999662,29.18749159393386],[-99.21702591696884,29.18744401631497],[-99.21698918306026,29.18743821674712],[-99.21694691642782,29.18743510011648],[-99.21690218302163,29.18743841673221],[-99.21686686665454,29.18744233330319],[-99.2168220829427,29.18744288306615],[-99.21677829995404,29.18744736665345],[-99.21673458344074,29.18745143301678],[-99.21669088309713,29.18745543350252],[-99.21664216656094,29.18746046685208],[-99.21659103355665,29.18747031631193],[-99.21653813356622,29.187479800308],[-99.21649069982426,29.18750009996218],[-99.21643833343309,29.18751028351067],[-99.21638758311113,29.18751748296915],[-99.21634148336737,29.18752220026106],[-99.21629103308271,29.18752898327945],[-99.21625293373488,29.18753771673848],[-99.21621778355612,29.18754676703556],[-99.21618271692068,29.18756453353499],[-99.21614128302652,29.18758536646527],[-99.21609573305172,29.18760143347947],[-99.21603881669364,29.18761868314611],[-99.21599413359306,29.18764163355053],[-99.21597376698897,29.18767076700485],[-99.21596346690592,29.18769724967468],[-99.21595558329099,29.18772581688244],[-99.2159379331923,29.18775711641928],[-99.21590804983605,29.18779281638802],[-99.21588231669641,29.18781904963407],[-99.21587883302975,29.18785419982051],[-99.21587956695333,29.18788286658454],[-99.21587381683716,29.18791098358018],[-99.215861533274,29.18794481697695],[-99.21583158344242,29.18795806690412],[-99.21578505699891,29.18796330648716]]},"properties":{"CreationDa":"7/26/2022","EditDate":"7/26/2022","Source":"Feb 2023 survey","name":"Yancey Water Line 8","name_src":"seq","layer":"Yancey Water Line","System":"Yancey","Length_ft":"936"}},{"type":"Feature","geometry":{"type":"LineString","coordinates":[[-99.21779940716223,29.18662450891831],[-99.21779850940203,29.18660628667495],[-99.21765704690885,29.18660938714008],[-99.21768115622194,29.18688614030494]]},"properties":{"CreationDa":"7/26/2022","EditDate":"7/26/2022","Source":"Feb 2023 survey","name":"Yancey Water Line 9","name_src":"seq","layer":"Yancey Water Line","System":"Yancey","Length_ft":"153"}},{"type":"Feature","geometry":{"type":"LineString","coordinates":[[-99.21706295450802,29.1874535959926],[-99.21705020651582,29.18768371659836]]},"properties":{"CreationDa":"7/26/2022","EditDate":"7/26/2022","Source":"Feb 2023 survey","name":"Yancey Water Line 10","name_src":"seq","layer":"Yancey Water Line","System":"Yancey","Length_ft":"84"}},{"type":"Feature","geometry":{"type":"LineString","coordinates":[[-99.21703896320173,29.18769018668895],[-99.21705890669935,29.18768733357512]]},"properties":{"CreationDa":"7/26/2022","EditDate":"7/26/2022","Source":"Feb 2023 survey","name":"Yancey Water Line 11","name_src":"seq","layer":"Yancey Water Line","System":"Yancey","Length_ft":"6"}},{"type":"Feature","geometry":{"type":"LineString","coordinates":[[-99.21705020651582,29.18768371659836],[-99.21725500717021,29.18769228630802]]},"properties":{"CreationDa":"7/26/2022","EditDate":"7/26/2022","Source":"Feb 2023 survey","name":"Yancey Water Line 12","name_src":"seq","layer":"Yancey Water Line","System":"Yancey","Length_ft":"65"}},{"type":"Feature","geometry":{"type":"LineString","coordinates":[[-99.21447489559806,29.18700543787406],[-99.21480000308591,29.18701602693335],[-99.21482715845423,29.18701598720198]]},"properties":{"CreationDa":"7/26/2022","EditDate":"7/26/2022","Source":"Feb 2023 survey","name":"Yancey Water Line 13","name_src":"seq","layer":"Yancey Water Line","System":"Yancey","Length_ft":"112"}},{"type":"Feature","geometry":{"type":"LineString","coordinates":[[-99.20933774242411,29.18668772780192],[-99.2099256455396,29.18659094616146],[-99.2096291538851,29.18598439473326],[-99.21376463453383,29.18595915860514],[-99.21380677630043,29.1866655929555],[-99.21429350687757,29.18673181673552],[-99.21448336311795,29.18674825013311],[-99.21482401070404,29.18671033342936]]},"properties":{"CreationDa":"7/26/2022","EditDate":"7/26/2022","Source":"Feb 2023 survey","name":"Yancey Water Line 14","name_src":"seq","layer":"Yancey Water Line","System":"Yancey","Length_ft":"2333"}},{"type":"Feature","geometry":{"type":"LineString","coordinates":[[-99.21075637427667,29.19153062948299],[-99.21065341656534,29.19163931660036],[-99.21063803291608,29.19166510028703],[-99.21061928327946,29.19169846661713],[-99.21060351694793,29.19172706643199],[-99.21057800030229,29.19176841690841],[-99.21054788338408,29.19181661676186],[-99.21053436643399,29.19184266703931],[-99.21051936636538,29.19186823344551],[-99.21050564998933,29.1918932336376],[-99.21049239983887,29.19192123346907],[-99.21047613314569,29.19195001672949],[-99.21045943346458,29.19198073308557],[-99.21044078354095,29.19201416675591],[-99.21042255043562,29.19204848344713],[-99.21040073305232,29.19208008358945],[-99.21037413303846,29.19211210014262],[-99.21034836666114,29.19214228318103],[-99.21032186636027,29.19217293360511],[-99.21029483335843,29.19220483328069],[-99.21027130019294,29.19223611655053],[-99.21024303290588,29.19227346652402],[-99.21021963358936,29.19230916648915],[-99.21020084981679,29.19234753356648],[-99.21017168331613,29.19238441689004],[-99.21016841704176,29.19244491689874],[-99.21015233360491,29.19249226634336],[-99.21012963317767,29.1925314167844],[-99.21011016668545,29.19257721657824],[-99.21008168290444,29.19261386690712],[-99.21005591652715,29.19265098304679],[-99.21003421682315,29.19269236687197],[-99.21000971707039,29.19272888305888],[-99.20998605005593,29.1927616499029],[-99.20995725006793,29.19277816702956],[-99.20992443371227,29.19279158336994],[-99.2098910334517,29.19282213322055],[-99.20986940022303,29.19286056676416],[-99.2098490336189,29.19289906695154],[-99.20983163325184,29.19293728323925],[-99.20981713354483,29.19297533325961],[-99.20980878370429,29.19301348364504],[-99.20980391663207,29.1930550335769],[-99.2097984162476,29.19309558362157],[-99.20978990021871,29.19313564979156],[-99.20977961630533,29.19317396637019],[-99.2097676669154,29.19321403329377],[-99.20974966647374,29.1932497666525],[-99.20972226695926,29.19327981682446],[-99.2096956669454,29.19330571694605],[-99.20966859980757,29.19333958306842],[-99.20961396696693,29.1933647170017],[-99.20958126649396,29.19337068327118],[-99.20954576687055,29.19338491668068],[-99.20950836641201,29.19340770032654],[-99.20947318299561,29.1934321668809],[-99.20944568376812,29.19345416630695],[-99.20942218294198,29.19347426637376],[-99.20939666629633,29.19350274963049],[-99.20944347121758,29.19351842282907],[-99.20941564320671,29.19371875975431]]},"properties":{"CreationDa":"7/26/2022","EditDate":"7/26/2022","Source":"Feb 2023 survey","name":"Yancey Water Line 15","name_src":"seq","layer":"Yancey Water Line","System":"Yancey","Length_ft":"957"}},{"type":"Feature","geometry":{"type":"LineString","coordinates":[[-99.21368016774429,29.18963991068766],[-99.21373332016135,29.18968804331277],[-99.21486205601487,29.18971958180861]]},"properties":{"CreationDa":"7/26/2022","EditDate":"7/26/2022","Source":"Feb 2023 survey","name":"Yancey Water Line 16","name_src":"seq","layer":"Yancey Water Line","System":"Yancey","Length_ft":"384"}},{"type":"Feature","geometry":{"type":"LineString","coordinates":[[-99.21482394469281,29.18673125182087],[-99.21483987973623,29.18775217758919],[-99.21483751267549,29.18801042860999],[-99.21485135930726,29.18869685292272],[-99.21486587608227,29.19008482193598],[-99.21486604180193,29.1907781094716],[-99.21491184219026,29.19114982662432],[-99.2150921247394,29.19155956206366],[-99.21536016805221,29.19193201125224],[-99.21547391760855,29.1920725525444],[-99.2156393223557,29.19226151069521]]},"properties":{"CreationDa":"7/26/2022","EditDate":"7/26/2022","Source":"Feb 2023 survey","name":"Yancey Water Line 17","name_src":"seq","layer":"Yancey Water Line","System":"Yancey","Length_ft":"2083"}},{"type":"Feature","geometry":{"type":"LineString","coordinates":[[-99.21601903639733,29.16375764457629],[-99.21601792967289,29.1637239153786],[-99.21451013262134,29.16377238962443],[-99.21449379456477,29.16389082453509],[-99.21406171209962,29.1638906354862],[-99.21425807253911,29.1650394768763],[-99.2144655806748,29.16720386564746],[-99.21507736212938,29.16835958212299],[-99.215538976158,29.16929615624031],[-99.21583031113592,29.16957223794346],[-99.21678132428956,29.17126817485872],[-99.2167789419574,29.17206450932355],[-99.21678775173538,29.17243460477808]]},"properties":{"CreationDa":"7/26/2022","EditDate":"7/26/2022","Source":"Feb 2023 survey","name":"Yancey Water Line 18","name_src":"seq","layer":"Yancey Water Line","System":"Yancey","Length_ft":"3978"}},{"type":"Feature","geometry":{"type":"LineString","coordinates":[[-99.21942174449285,29.17540199698149],[-99.21684288180408,29.17580441733628]]},"properties":{"Source":"Feb 2023 survey","name":"Yancey Water Line 19","name_src":"seq","layer":"Yancey Water Line","System":"Yancey","Length_ft":"834"}},{"type":"Feature","geometry":{"type":"LineString","coordinates":[[-99.220257536576,29.17354296513222],[-99.21940514806363,29.17540458678745]]},"properties":{"Source":"Feb 2023 survey","name":"Yancey Water Line 20","name_src":"seq","layer":"Yancey Water Line","System":"Yancey","Length_ft":"731"}},{"type":"Feature","geometry":{"type":"LineString","coordinates":[[-99.21725500717021,29.18769228630802],[-99.21725502958714,29.18770759319127]]},"properties":{"Source":"Feb 2023 survey","name":"Yancey Water Line 21","name_src":"seq","layer":"Yancey Water Line","System":"Yancey","Length_ft":"6"}},{"type":"Feature","geometry":{"type":"LineString","coordinates":[[-99.2172448541842,29.18769186146495],[-99.21724488670927,29.18770771631907]]},"properties":{"Source":"Feb 2023 survey","name":"Yancey Water Line 22","name_src":"seq","layer":"Yancey Water Line","System":"Yancey","Length_ft":"6"}},{"type":"Feature","geometry":{"type":"LineString","coordinates":[[-99.21568587690646,29.1879327784529],[-99.21568595934833,29.18794380529258]]},"properties":{"Source":"Feb 2023 survey","name":"Yancey Water Line 23","name_src":"seq","layer":"Yancey Water Line","System":"Yancey","Length_ft":"4"}},{"type":"Feature","geometry":{"type":"LineString","coordinates":[[-99.21482394469278,29.18673125182078],[-99.21483987973627,29.18775217758923],[-99.21483751267549,29.18801042860996],[-99.21485135930729,29.18869685292268],[-99.21486587608227,29.190084821936],[-99.21563705999074,29.19225911180095]]},"properties":{"CreationDa":"7/26/2022","EditDate":"7/26/2022","Source":"2022 survey (post-review)","name":"Yancey Water Line 24","name_src":"seq","layer":"Yancey Water Line","System":"Yancey","Length_ft":"2054"}},{"type":"Feature","geometry":{"type":"LineString","coordinates":[[-99.21631949061471,29.18664116938357],[-99.216318514181,29.18675149225479],[-99.21545148633368,29.18691659304491]]},"properties":{"Source":"2022 survey (post-review)","name":"Untitled Path","name_src":"field","layer":"Yancey Water Line","System":"Yancey","Length_ft":"323"}}]}